{"type": "FeatureCollection", "features": [{"type": "Feature", "properties": {"name": "Rîbnița"}, "geometry": {"type": "Polygon", "coordinates": [[[28.97451, 47.734959], [28.9758624, 47.7346526], [28.9796978, 47.7336247], [28.981216, 47.7332892], [28.983013, 47.7329654], [28.9833721, 47.7331525], [28.9838898, 47.7329889], [28.9844938, 47.7327244], [28.9847197, 47.7328531], [28.9870376, 47.7346024], [28.9872715, 47.7349408], [28.9899253, 47.7369051], [28.9904007, 47.7371344], [28.9912875, 47.7376326], [28.9909782, 47.7378396], [28.9907384, 47.7377775], [28.9899683, 47.7384094], [28.9882519, 47.7404219], [28.9899058, 47.741067], [28.9911612, 47.7415644], [28.9920924, 47.7432217], [28.9925745, 47.7442682], [28.9930234, 47.7450889], [28.9933315, 47.745437], [28.9939302, 47.7458905], [28.9938868, 47.7460404], [28.9932822, 47.7467192], [28.995064, 47.7474891], [28.997322, 47.7480739], [28.9980481, 47.7482159], [29.0008975, 47.7484203], [29.0024014, 47.7483443], [29.0025682, 47.7477836], [29.0027501, 47.7476147], [29.0035718, 47.7472635], [29.0043045, 47.7471513], [29.0055874, 47.7466539], [29.0074105, 47.7463624], [29.0080602, 47.7460086], [29.0084746, 47.7454988], [29.0086913, 47.7449592], [29.0085848, 47.7443204], [29.0087428, 47.7439587], [29.009776, 47.7431453], [29.0103859, 47.7426099], [29.0110686, 47.7422665], [29.0115908, 47.7422187], [29.0122413, 47.7423123], [29.0130356, 47.74295], [29.0131515, 47.7431965], [29.0130783, 47.7436341], [29.0131475, 47.7439422], [29.0134519, 47.7441909], [29.0136907, 47.7442254], [29.0146432, 47.7440816], [29.0154218, 47.7436758], [29.01529, 47.7425956], [29.0157394, 47.7421459], [29.0160315, 47.7418646], [29.0161745, 47.7417517], [29.0165345, 47.7413201], [29.0174369, 47.7413649], [29.0175268, 47.7415732], [29.0186087, 47.7420237], [29.0194263, 47.742418], [29.0205011, 47.743106], [29.0211496, 47.7439948], [29.0215749, 47.7446169], [29.0219526, 47.7448533], [29.0224893, 47.7451807], [29.0227204, 47.7452264], [29.0230036, 47.7451385], [29.024857, 47.743101], [29.0259866, 47.7420372], [29.027142, 47.7414258], [29.027724, 47.7412333], [29.0285332, 47.740987], [29.0298984, 47.7399825], [29.0309109, 47.7394896], [29.0319156, 47.7383783], [29.0338479, 47.7362784], [29.0344, 47.7357384], [29.0349339, 47.7357842], [29.0352225, 47.7356244], [29.0354836, 47.7353934], [29.0358735, 47.7353146], [29.0364232, 47.7353435], [29.0372107, 47.7341255], [29.0376191, 47.733682], [29.0384008, 47.7331544], [29.0419359, 47.7310204], [29.0485058, 47.7271697], [29.0525261, 47.7301135], [29.0540785, 47.7283735], [29.0569282, 47.7259034], [29.0583178, 47.7246082], [29.0587342, 47.7247885], [29.0609011, 47.7261855], [29.0613742, 47.7261439], [29.062774, 47.7246938], [29.0629629, 47.7236742], [29.0630803, 47.7225012], [29.0638129, 47.7215712], [29.0647003, 47.7206218], [29.0652584, 47.719833], [29.066026, 47.7191675], [29.0661911, 47.7192032], [29.0664252, 47.7195359], [29.0662945, 47.7205765], [29.0666143, 47.7220399], [29.0669729, 47.7220003], [29.0693975, 47.7208078], [29.0700024, 47.7205815], [29.0706771, 47.7204644], [29.0712205, 47.7203386], [29.0715916, 47.7204092], [29.0720543, 47.7203125], [29.0726027, 47.7201093], [29.0731231, 47.7200225], [29.0734863, 47.7200988], [29.0748514, 47.7214991], [29.0769395, 47.7206991], [29.0774323, 47.7205355], [29.0781879, 47.7203948], [29.0791088, 47.7200909], [29.0791952, 47.7204097], [29.0791325, 47.720687], [29.0792322, 47.7209282], [29.0794686, 47.7215204], [29.0798567, 47.7228417], [29.0815848, 47.7216339], [29.0820735, 47.722807], [29.0829755, 47.7238731], [29.0827016, 47.7239319], [29.0809645, 47.7247091], [29.0778679, 47.7260852], [29.0763434, 47.7266541], [29.0752697, 47.7272368], [29.0735031, 47.7278929], [29.0718659, 47.7287178], [29.0708274, 47.7293662], [29.0682904, 47.7314499], [29.0674154, 47.7322997], [29.0662386, 47.7333868], [29.0658178, 47.7339246], [29.0657705, 47.7343839], [29.0653395, 47.7344579], [29.0648983, 47.7346868], [29.0637894, 47.7356291], [29.0619526, 47.7372141], [29.0614048, 47.7376492], [29.0583026, 47.7395385], [29.0570823, 47.7403613], [29.0566317, 47.7405627], [29.0554966, 47.7412623], [29.0544943, 47.7420093], [29.0539177, 47.7419202], [29.0535921, 47.7419702], [29.0528613, 47.7425411], [29.0516228, 47.7437397], [29.0504952, 47.7448424], [29.049666, 47.7460391], [29.0489456, 47.7470848], [29.0485394, 47.7477935], [29.0478996, 47.7488101], [29.0473252, 47.7496156], [29.0465537, 47.7501983], [29.0460908, 47.7507146], [29.0465664, 47.7513579], [29.0465445, 47.7518443], [29.0471251, 47.752447], [29.0473379, 47.7526531], [29.0484342, 47.7528323], [29.0509274, 47.7531302], [29.0523611, 47.7516852], [29.0527344, 47.7518055], [29.0521559, 47.7545884], [29.0533022, 47.756037], [29.0542645, 47.7559314], [29.0541219, 47.7573037], [29.0540938, 47.7582541], [29.0544844, 47.7596445], [29.0529058, 47.7599102], [29.0527022, 47.7603557], [29.0522038, 47.7603867], [29.0519866, 47.7602801], [29.0514472, 47.760102], [29.0510187, 47.76014], [29.0503443, 47.7602791], [29.0500783, 47.7603888], [29.0499479, 47.7608219], [29.0497186, 47.7612402], [29.0493241, 47.7616228], [29.0486844, 47.7623329], [29.0485419, 47.7627718], [29.0485144, 47.7631147], [29.048681, 47.7634983], [29.0485594, 47.7636331], [29.0486251, 47.7646813], [29.0488353, 47.7656523], [29.0489611, 47.7658323], [29.0493773, 47.7661038], [29.0496378, 47.7661654], [29.0502884, 47.766151], [29.0508442, 47.766119], [29.0514319, 47.7661693], [29.0522591, 47.7662677], [29.0524258, 47.766342], [29.0525578, 47.7665716], [29.0527196, 47.767041], [29.0527073, 47.7673532], [29.0524129, 47.7676788], [29.0523681, 47.7682043], [29.0523235, 47.7688403], [29.0523776, 47.7693833], [29.0523202, 47.7696936], [29.052216, 47.7701677], [29.0520419, 47.7705326], [29.0516772, 47.7708428], [29.0513687, 47.7711218], [29.0511066, 47.7715407], [29.0507005, 47.7719428], [29.0478876, 47.7715595], [29.0481431, 47.7711794], [29.045179, 47.7712212], [29.0449576, 47.769756], [29.0446129, 47.7697401], [29.0437018, 47.7696956], [29.0430777, 47.7698669], [29.0422156, 47.7702357], [29.041771, 47.7693433], [29.0410324, 47.7688926], [29.0404838, 47.7691067], [29.0395994, 47.7697465], [29.0390828, 47.7699434], [29.0380907, 47.7701323], [29.0378505, 47.7698549], [29.0381676, 47.769794], [29.0387381, 47.7695077], [29.0394815, 47.7686164], [29.0399789, 47.7681381], [29.0408765, 47.7674207], [29.0412229, 47.7668512], [29.0411804, 47.7663935], [29.0407558, 47.766009], [29.0389061, 47.7652134], [29.0382406, 47.7647447], [29.0380592, 47.7645049], [29.0399949, 47.7635206], [29.0401316, 47.7630376], [29.0389531, 47.7622246], [29.0367344, 47.7635122], [29.0332943, 47.7656223], [29.0239255, 47.7715981], [29.023368, 47.7720111], [29.0231262, 47.7723247], [29.0229832, 47.7728629], [29.0229387, 47.7755147], [29.0230825, 47.7758436], [29.0247435, 47.7770514], [29.0264804, 47.7757836], [29.0289281, 47.7776237], [29.0271707, 47.778787], [29.0336843, 47.7833938], [29.0348314, 47.7842295], [29.0363093, 47.785562], [29.0373059, 47.7865274], [29.0397421, 47.7897261], [29.0392149, 47.789868], [29.0391236, 47.7900464], [29.0366155, 47.7896215], [29.0356312, 47.7893904], [29.029817, 47.7878255], [29.0272316, 47.7870924], [29.0261306, 47.7865982], [29.0210121, 47.7828832], [29.0210012, 47.7834467], [29.0187485, 47.7893904], [29.0126968, 47.7893034], [29.0094757, 47.7892964], [29.0078007, 47.7892802], [28.9892112, 47.7903745], [28.9879041, 47.7819826], [28.9856956, 47.7767568], [28.9844082, 47.772252], [28.9830731, 47.7683823], [28.9824358, 47.7651866], [28.9821385, 47.7623194], [28.9817731, 47.7578707], [28.9816207, 47.7554346], [28.9815898, 47.7545631], [28.9812253, 47.7498398], [28.9808094, 47.7474988], [28.9803939, 47.7456921], [28.9799918, 47.7442632], [28.9785198, 47.741042], [28.9757705, 47.7366616], [28.97451, 47.734959]]]}}, {"type": "Feature", "properties": {"name": "Rezina"}, "geometry": {"type": "Polygon", "coordinates": [[[28.8990707, 47.7649917], [28.9003864, 47.7644378], [28.9018776, 47.7638287], [28.9020232, 47.7637426], [28.9047974, 47.7621945], [28.9057832, 47.7616308], [28.905977, 47.7615204], [28.9062104, 47.7613865], [28.9070159, 47.7605294], [28.9086292, 47.7587479], [28.9145534, 47.7522699], [28.9146517, 47.7521221], [28.9147954, 47.7519869], [28.9153424, 47.7514264], [28.9153528, 47.7510463], [28.9153654, 47.7498419], [28.9153707, 47.7496133], [28.9153806, 47.7489017], [28.9153578, 47.7481385], [28.9153658, 47.7475368], [28.915368, 47.7468538], [28.9153622, 47.7462767], [28.9153433, 47.7460775], [28.9153442, 47.7457857], [28.9147893, 47.7457225], [28.9146086, 47.7457004], [28.9098206, 47.7406037], [28.9101986, 47.7405656], [28.9120017, 47.7403846], [28.913719, 47.7402292], [28.9153868, 47.7400672], [28.9197937, 47.7396632], [28.9207782, 47.7395835], [28.9217786, 47.7394771], [28.9226955, 47.7394492], [28.9234204, 47.7393679], [28.9246798, 47.739044], [28.9256791, 47.7389433], [28.9273151, 47.7388876], [28.9272348, 47.7384775], [28.9271457, 47.7380237], [28.9278171, 47.7346996], [28.9278236, 47.734449], [28.9277359, 47.7343081], [28.9267869, 47.7335984], [28.9261116, 47.7331382], [28.925751, 47.7328035], [28.9253034, 47.7323443], [28.9231093, 47.7304782], [28.9230093, 47.7304383], [28.9231669, 47.7299417], [28.9232877, 47.7293014], [28.9237928, 47.7279281], [28.923861, 47.7278176], [28.923962, 47.7278505], [28.9246333, 47.7278869], [28.9257034, 47.728031], [28.9272938, 47.7282199], [28.9280137, 47.7283209], [28.9288922, 47.7283896], [28.9299124, 47.7284996], [28.9303949, 47.7285991], [28.9310451, 47.7286785], [28.9316352, 47.7286964], [28.9330026, 47.7288848], [28.9333477, 47.7290084], [28.9335473, 47.728909], [28.9364919, 47.7275357], [28.9377239, 47.727021], [28.938015, 47.7269936], [28.9420203, 47.7297699], [28.9424821, 47.730212], [28.9451058, 47.7297862], [28.9451959, 47.7297042], [28.9455154, 47.7296628], [28.9460746, 47.7296526], [28.9464346, 47.7296075], [28.9469134, 47.7296226], [28.947454, 47.7296169], [28.9479922, 47.7296991], [28.9484258, 47.7295785], [28.9498658, 47.7295447], [28.9503279, 47.729559], [28.9509193, 47.7295684], [28.951789, 47.7296479], [28.952823, 47.729743], [28.9528646, 47.729755], [28.953053, 47.7297759], [28.9533124, 47.729826], [28.9535306, 47.7298971], [28.9537229, 47.7299403], [28.9537413, 47.7299194], [28.9539271, 47.7298967], [28.9540598, 47.729901], [28.9543911, 47.7299294], [28.9547201, 47.7299524], [28.9550553, 47.729944], [28.9561379, 47.7297296], [28.9561421, 47.7297568], [28.9562222, 47.7297681], [28.9596647, 47.7292542], [28.959962, 47.7292028], [28.9601419, 47.7291776], [28.9601784, 47.7291691], [28.9604626, 47.7291413], [28.9614937, 47.7289742], [28.9615049, 47.728853], [28.9615556, 47.7277652], [28.9615914, 47.7275589], [28.9616743, 47.7272777], [28.9616959, 47.7271345], [28.9615608, 47.7266852], [28.9617203, 47.7256084], [28.9618303, 47.7252325], [28.9620204, 47.7252541], [28.9626144, 47.722881], [28.9629297, 47.7229054], [28.9629399, 47.7228358], [28.9630474, 47.7228385], [28.9630503, 47.7228165], [28.9630786, 47.7225433], [28.9630795, 47.7224984], [28.9630917, 47.7224112], [28.9631193, 47.722187], [28.9631399, 47.721747], [28.9631343, 47.721687], [28.9631412, 47.7216421], [28.9631809, 47.7216434], [28.9632276, 47.7214943], [28.9632739, 47.7214503], [28.9633759, 47.7213264], [28.9637573, 47.7213486], [28.9660005, 47.7214092], [28.9666365, 47.7235783], [28.9671968, 47.7249659], [28.9682169, 47.7266146], [28.971967, 47.7311547], [28.97451, 47.734959], [28.9757705, 47.7366616], [28.9785198, 47.741042], [28.9799918, 47.7442632], [28.9803939, 47.7456921], [28.9808094, 47.7474988], [28.9812253, 47.7498398], [28.9815898, 47.7545631], [28.9816207, 47.7554346], [28.9817731, 47.7578707], [28.9821385, 47.7623194], [28.9824358, 47.7651866], [28.9830731, 47.7683823], [28.9844082, 47.772252], [28.9856956, 47.7767568], [28.9879041, 47.7819826], [28.9892112, 47.7903745], [28.9910678, 47.7951614], [28.9925193, 47.798631], [28.9908761, 47.7989086], [28.9897952, 47.7991071], [28.9884223, 47.7993593], [28.9883924, 47.7993014], [28.9871216, 47.7994559], [28.9871439, 47.7995147], [28.9865866, 47.7995988], [28.985468, 47.799846], [28.9847107, 47.8000702], [28.9841511, 47.8001886], [28.9829432, 47.800132], [28.9818965, 47.8001373], [28.9811768, 47.8005298], [28.9800728, 47.8005789], [28.9797025, 47.8004254], [28.9790265, 47.8007161], [28.9786339, 47.8010542], [28.9782, 47.8014228], [28.9776103, 47.8018474], [28.9771026, 47.8021984], [28.9762656, 47.8029488], [28.9758159, 47.8032296], [28.9736223, 47.803926], [28.9726817, 47.8041976], [28.9724958, 47.8042275], [28.972148, 47.8042515], [28.9718308, 47.8042195], [28.9717321, 47.8041715], [28.9716475, 47.8041017], [28.9714381, 47.8039153], [28.9712799, 47.8037176], [28.9712208, 47.8035505], [28.9712125, 47.8034594], [28.9712645, 47.8033395], [28.971405, 47.8030988], [28.9714147, 47.8029614], [28.9712777, 47.8028752], [28.9710762, 47.8027894], [28.9708186, 47.8028148], [28.970666, 47.8028922], [28.9703711, 47.803432], [28.970338, 47.8035654], [28.9699881, 47.8038577], [28.9694418, 47.8045841], [28.9690282, 47.8046436], [28.9687263, 47.8046169], [28.9680739, 47.8039841], [28.9680359, 47.8037816], [28.9684521, 47.8030059], [28.9692598, 47.802137], [28.9693905, 47.8018743], [28.9694462, 47.8016779], [28.9694278, 47.8015474], [28.9650742, 47.8019882], [28.9629354, 47.8022179], [28.962678, 47.802271], [28.9624529, 47.8023662], [28.9621715, 47.8024784], [28.961112, 47.802968], [28.9607623, 47.8031525], [28.9600775, 47.8034686], [28.9583093, 47.8043106], [28.9558931, 47.8054113], [28.9556945, 47.8054784], [28.9555041, 47.8055131], [28.9550719, 47.8054988], [28.9548311, 47.8052993], [28.9547324, 47.805194], [28.9536474, 47.804175], [28.953554, 47.8040873], [28.952886, 47.8033856], [28.9528626, 47.803362], [28.9518734, 47.8023175], [28.9518374, 47.8022961], [28.9517635, 47.8022283], [28.9518578, 47.8021685], [28.9518952, 47.8020834], [28.9513077, 47.8015096], [28.9511596, 47.8015456], [28.9511332, 47.8015205], [28.950826, 47.8012318], [28.9499726, 47.8005058], [28.949651, 47.8005822], [28.9492632, 47.800608], [28.9482421, 47.8007041], [28.9475697, 47.8010332], [28.9472454, 47.8012797], [28.9465876, 47.8016534], [28.9457407, 47.8020577], [28.9452871, 47.8022812], [28.9447591, 47.8025158], [28.9434709, 47.8031088], [28.9426399, 47.8021925], [28.9420302, 47.8015], [28.9418665, 47.8013397], [28.9418069, 47.8013067], [28.9414513, 47.8011093], [28.9412956, 47.8011869], [28.9394703, 47.8002042], [28.9361323, 47.7983378], [28.9359209, 47.7982635], [28.9358307, 47.7980523], [28.9366204, 47.7972497], [28.9381765, 47.7965308], [28.9382702, 47.7964879], [28.9387596, 47.7962484], [28.939214, 47.7959122], [28.9400008, 47.7956587], [28.9409758, 47.7951608], [28.9429463, 47.7944962], [28.9445399, 47.794514], [28.9459769, 47.7934129], [28.9457566, 47.7932528], [28.945835, 47.7932195], [28.9459468, 47.793137], [28.9461828, 47.7929655], [28.9464707, 47.7927305], [28.9469326, 47.7924311], [28.9469061, 47.7923563], [28.9468544, 47.7923277], [28.9463373, 47.7922929], [28.946258, 47.7923028], [28.9437144, 47.7902464], [28.9433859, 47.7899715], [28.9426424, 47.7893665], [28.941961, 47.7888131], [28.9419794, 47.7886638], [28.9368396, 47.7847102], [28.9327378, 47.7815546], [28.9326389, 47.7814974], [28.9329822, 47.7810373], [28.9331894, 47.7807758], [28.9320527, 47.7812987], [28.9319354, 47.7813572], [28.9318871, 47.7813175], [28.9313031, 47.7808044], [28.930818, 47.7803922], [28.9306049, 47.7801805], [28.9304989, 47.7800537], [28.9303998, 47.7798723], [28.9301515, 47.779539], [28.9298948, 47.7796694], [28.9294993, 47.7795178], [28.9292177, 47.7793788], [28.9288441, 47.779123], [28.9286669, 47.7790002], [28.9276081, 47.7797386], [28.9268076, 47.7793288], [28.9262086, 47.779008], [28.9260615, 47.7789275], [28.925891, 47.7788156], [28.9255432, 47.7786144], [28.9248758, 47.7781681], [28.9242804, 47.7777663], [28.9234826, 47.7772506], [28.9242105, 47.7765518], [28.9246689, 47.7762273], [28.924583, 47.7761795], [28.9243896, 47.7760608], [28.9246246, 47.7758642], [28.9250234, 47.7755196], [28.9255621, 47.775095], [28.9267419, 47.7741572], [28.9279021, 47.7731338], [28.9289371, 47.7722208], [28.9298832, 47.771324], [28.9296908, 47.7712273], [28.9293789, 47.7712399], [28.92906, 47.7712776], [28.9288023, 47.7712903], [28.9287285, 47.7711941], [28.928716, 47.7710638], [28.9287788, 47.7708401], [28.9288341, 47.7707101], [28.9290057, 47.7704479], [28.9291629, 47.7702794], [28.929472, 47.7702029], [28.9297777, 47.770124], [28.930073, 47.770068], [28.9304635, 47.7699803], [28.9308235, 47.7698925], [28.9311732, 47.769807], [28.9314826, 47.7696938], [28.9318191, 47.769574], [28.9319347, 47.7695306], [28.932193, 47.7694337], [28.9324988, 47.7693457], [28.9328719, 47.7693105], [28.9331837, 47.7693047], [28.9333939, 47.7692987], [28.9337907, 47.769275], [28.9341466, 47.769274], [28.9344173, 47.7693184], [28.9346809, 47.7694244], [28.9348799, 47.7695417], [28.9350044, 47.7696587], [28.9351217, 47.7698168], [28.9351549, 47.7699128], [28.9358331, 47.7698681], [28.9360438, 47.7698344], [28.9364148, 47.7697802], [28.9367454, 47.7697332], [28.9370617, 47.7696545], [28.9375698, 47.7695281], [28.9377817, 47.7694733], [28.9382501, 47.7693838], [28.9384861, 47.7693448], [28.9388331, 47.7692794], [28.9392709, 47.7691857], [28.9394527, 47.7691427], [28.940317, 47.7689873], [28.9407217, 47.7688273], [28.9410558, 47.7686466], [28.9413977, 47.7684554], [28.9417859, 47.7682066], [28.9420284, 47.7680434], [28.942343, 47.7678615], [28.9428555, 47.7675535], [28.9431972, 47.7673464], [28.9437969, 47.7671539], [28.9445285, 47.7668712], [28.9453543, 47.7666249], [28.9459229, 47.7664484], [28.9463508, 47.7662725], [28.9468096, 47.7660543], [28.9473226, 47.7657884], [28.9476795, 47.7655496], [28.9481604, 47.7652102], [28.9485793, 47.7649131], [28.9490983, 47.7644839], [28.9493754, 47.7640874], [28.9509769, 47.7618037], [28.9499696, 47.7612406], [28.9479341, 47.7601027], [28.9428775, 47.7572701], [28.9420734, 47.7567709], [28.9419845, 47.7567315], [28.9418665, 47.7567162], [28.9417488, 47.7567426], [28.9416371, 47.7567769], [28.93705, 47.7582418], [28.9328115, 47.7595835], [28.9317529, 47.7599265], [28.9304918, 47.7602961], [28.9290189, 47.7606879], [28.927325, 47.7612021], [28.9254082, 47.7617598], [28.9242355, 47.762178], [28.9239388, 47.7623129], [28.9227719, 47.7626882], [28.9207966, 47.7632741], [28.9198725, 47.7635618], [28.9189061, 47.7638898], [28.9171057, 47.7644214], [28.9168801, 47.7645379], [28.9167567, 47.7646347], [28.9167151, 47.7650478], [28.9166931, 47.7656374], [28.914287, 47.7648683], [28.9134911, 47.764613], [28.9112842, 47.7638773], [28.9102929, 47.7635199], [28.9107083, 47.7628829], [28.9111271, 47.7622925], [28.9115339, 47.7616824], [28.9118351, 47.761163], [28.9120681, 47.7608311], [28.9124329, 47.7601486], [28.9122183, 47.7599149], [28.912072, 47.7598808], [28.9118573, 47.7599334], [28.9114036, 47.7602675], [28.9109691, 47.7606821], [28.9107709, 47.7608448], [28.9102713, 47.7613103], [28.9096661, 47.7618378], [28.909461, 47.761966], [28.909179, 47.7620785], [28.9087249, 47.7621859], [28.9071927, 47.7626353], [28.9031445, 47.7638144], [28.9025958, 47.7639652], [28.9023271, 47.7640406], [28.9019979, 47.7641316], [28.9015364, 47.7642794], [28.900855, 47.7644384], [28.9004462, 47.7645374], [28.8998222, 47.7647473], [28.8994479, 47.7648845], [28.8990707, 47.7649917]]]}}, {"type": "Feature", "properties": {"name": "Rabnirez Metropole"}, "geometry": {"type": "Polygon", "coordinates": [[[29.0078007, 47.7892802], [29.0094757, 47.7892964], [29.0126968, 47.7893034], [29.0187485, 47.7893904], [29.0210012, 47.7834467], [29.0210121, 47.7828832], [29.0261306, 47.7865982], [29.0272316, 47.7870924], [29.029817, 47.7878255], [29.0356312, 47.7893904], [29.0366155, 47.7896215], [29.0391236, 47.7900464], [29.0392149, 47.789868], [29.0397421, 47.7897261], [29.0373059, 47.7865274], [29.0363093, 47.785562], [29.0348314, 47.7842295], [29.0336843, 47.7833938], [29.0271707, 47.778787], [29.0289281, 47.7776237], [29.0264804, 47.7757836], [29.0247435, 47.7770514], [29.0230825, 47.7758436], [29.0229387, 47.7755147], [29.0229832, 47.7728629], [29.0231262, 47.7723247], [29.023368, 47.7720111], [29.0239255, 47.7715981], [29.0332943, 47.7656223], [29.0367344, 47.7635122], [29.0389531, 47.7622246], [29.0401316, 47.7630376], [29.0399949, 47.7635206], [29.0380592, 47.7645049], [29.0382406, 47.7647447], [29.0389061, 47.7652134], [29.0407558, 47.766009], [29.0411804, 47.7663935], [29.0412229, 47.7668512], [29.0408765, 47.7674207], [29.0399789, 47.7681381], [29.0394815, 47.7686164], [29.0387381, 47.7695077], [29.0381676, 47.769794], [29.0378505, 47.7698549], [29.0380907, 47.7701323], [29.0390828, 47.7699434], [29.0395994, 47.7697465], [29.0404838, 47.7691067], [29.0410324, 47.7688926], [29.041771, 47.7693433], [29.0422156, 47.7702357], [29.0430777, 47.7698669], [29.0437018, 47.7696956], [29.0446129, 47.7697401], [29.0449576, 47.769756], [29.045179, 47.7712212], [29.0481431, 47.7711794], [29.0478876, 47.7715595], [29.0507005, 47.7719428], [29.0511066, 47.7715407], [29.0513687, 47.7711218], [29.0516772, 47.7708428], [29.0520419, 47.7705326], [29.052216, 47.7701677], [29.0523202, 47.7696936], [29.0523776, 47.7693833], [29.0523235, 47.7688403], [29.0523681, 47.7682043], [29.0524129, 47.7676788], [29.0527073, 47.7673532], [29.0527196, 47.767041], [29.0525578, 47.7665716], [29.0524258, 47.766342], [29.0522591, 47.7662677], [29.0514319, 47.7661693], [29.0508442, 47.766119], [29.0502884, 47.766151], [29.0496378, 47.7661654], [29.0493773, 47.7661038], [29.0489611, 47.7658323], [29.0488353, 47.7656523], [29.0486251, 47.7646813], [29.0485594, 47.7636331], [29.048681, 47.7634983], [29.0485144, 47.7631147], [29.0485419, 47.7627718], [29.0486844, 47.7623329], [29.0493241, 47.7616228], [29.0497186, 47.7612402], [29.0499479, 47.7608219], [29.0500783, 47.7603888], [29.0503443, 47.7602791], [29.0510187, 47.76014], [29.0514472, 47.760102], [29.0519866, 47.7602801], [29.0522038, 47.7603867], [29.0527022, 47.7603557], [29.0529058, 47.7599102], [29.0544844, 47.7596445], [29.0540938, 47.7582541], [29.0541219, 47.7573037], [29.0542645, 47.7559314], [29.0533022, 47.756037], [29.0521559, 47.7545884], [29.0527344, 47.7518055], [29.0523611, 47.7516852], [29.0509274, 47.7531302], [29.0484342, 47.7528323], [29.0473379, 47.7526531], [29.0471251, 47.752447], [29.0465445, 47.7518443], [29.0465664, 47.7513579], [29.0460908, 47.7507146], [29.0465537, 47.7501983], [29.0473252, 47.7496156], [29.0478996, 47.7488101], [29.0485394, 47.7477935], [29.0489456, 47.7470848], [29.049666, 47.7460391], [29.0504952, 47.7448424], [29.0516228, 47.7437397], [29.0528613, 47.7425411], [29.0535921, 47.7419702], [29.0539177, 47.7419202], [29.0544943, 47.7420093], [29.0554966, 47.7412623], [29.0566317, 47.7405627], [29.0570823, 47.7403613], [29.0583026, 47.7395385], [29.0614048, 47.7376492], [29.0619526, 47.7372141], [29.0637894, 47.7356291], [29.0648983, 47.7346868], [29.0653395, 47.7344579], [29.0657705, 47.7343839], [29.0658178, 47.7339246], [29.0662386, 47.7333868], [29.0674154, 47.7322997], [29.0682904, 47.7314499], [29.0708274, 47.7293662], [29.0718659, 47.7287178], [29.0735031, 47.7278929], [29.0752697, 47.7272368], [29.0763434, 47.7266541], [29.0778679, 47.7260852], [29.0809645, 47.7247091], [29.0827016, 47.7239319], [29.0829755, 47.7238731], [29.0820735, 47.722807], [29.0815848, 47.7216339], [29.0798567, 47.7228417], [29.0794686, 47.7215204], [29.0792322, 47.7209282], [29.0791325, 47.720687], [29.0791952, 47.7204097], [29.0791088, 47.7200909], [29.0781879, 47.7203948], [29.0774323, 47.7205355], [29.0769395, 47.7206991], [29.0748514, 47.7214991], [29.0734863, 47.7200988], [29.0731231, 47.7200225], [29.0726027, 47.7201093], [29.0720543, 47.7203125], [29.0715916, 47.7204092], [29.0712205, 47.7203386], [29.0706771, 47.7204644], [29.0700024, 47.7205815], [29.0693975, 47.7208078], [29.0669729, 47.7220003], [29.0666143, 47.7220399], [29.0662945, 47.7205765], [29.0664252, 47.7195359], [29.0661911, 47.7192032], [29.066026, 47.7191675], [29.0652584, 47.719833], [29.0647003, 47.7206218], [29.0638129, 47.7215712], [29.0630803, 47.7225012], [29.0629629, 47.7236742], [29.062774, 47.7246938], [29.0613742, 47.7261439], [29.0609011, 47.7261855], [29.0587342, 47.7247885], [29.0583178, 47.7246082], [29.0569282, 47.7259034], [29.0540785, 47.7283735], [29.0525261, 47.7301135], [29.0485058, 47.7271697], [29.0419359, 47.7310204], [29.0384008, 47.7331544], [29.0376191, 47.733682], [29.0372107, 47.7341255], [29.0364232, 47.7353435], [29.0358735, 47.7353146], [29.0354836, 47.7353934], [29.0352225, 47.7356244], [29.0349339, 47.7357842], [29.0344, 47.7357384], [29.0338479, 47.7362784], [29.0319156, 47.7383783], [29.0309109, 47.7394896], [29.0298984, 47.7399825], [29.0285332, 47.740987], [29.027724, 47.7412333], [29.027142, 47.7414258], [29.0259866, 47.7420372], [29.024857, 47.743101], [29.0230036, 47.7451385], [29.0227204, 47.7452264], [29.0224893, 47.7451807], [29.0219526, 47.7448533], [29.0215749, 47.7446169], [29.0211496, 47.7439948], [29.0205011, 47.743106], [29.0194263, 47.742418], [29.0186087, 47.7420237], [29.0175268, 47.7415732], [29.0174369, 47.7413649], [29.0165345, 47.7413201], [29.0161745, 47.7417517], [29.0160315, 47.7418646], [29.0157394, 47.7421459], [29.01529, 47.7425956], [29.0154218, 47.7436758], [29.0146432, 47.7440816], [29.0136907, 47.7442254], [29.0134519, 47.7441909], [29.0131475, 47.7439422], [29.0130783, 47.7436341], [29.0131515, 47.7431965], [29.0130356, 47.74295], [29.0122413, 47.7423123], [29.0115908, 47.7422187], [29.0110686, 47.7422665], [29.0103859, 47.7426099], [29.009776, 47.7431453], [29.0087428, 47.7439587], [29.0085848, 47.7443204], [29.0086913, 47.7449592], [29.0084746, 47.7454988], [29.0080602, 47.7460086], [29.0074105, 47.7463624], [29.0055874, 47.7466539], [29.0043045, 47.7471513], [29.0035718, 47.7472635], [29.0027501, 47.7476147], [29.0025682, 47.7477836], [29.0024014, 47.7483443], [29.0008975, 47.7484203], [28.9980481, 47.7482159], [28.997322, 47.7480739], [28.995064, 47.7474891], [28.9932822, 47.7467192], [28.9938868, 47.7460404], [28.9939302, 47.7458905], [28.9933315, 47.745437], [28.9930234, 47.7450889], [28.9925745, 47.7442682], [28.9920924, 47.7432217], [28.9911612, 47.7415644], [28.9899058, 47.741067], [28.9882519, 47.7404219], [28.9899683, 47.7384094], [28.9907384, 47.7377775], [28.9909782, 47.7378396], [28.9912875, 47.7376326], [28.9904007, 47.7371344], [28.9899253, 47.7369051], [28.9872715, 47.7349408], [28.9870376, 47.7346024], [28.9847197, 47.7328531], [28.9844938, 47.7327244], [28.9838898, 47.7329889], [28.9833721, 47.7331525], [28.983013, 47.7329654], [28.981216, 47.7332892], [28.9796978, 47.7336247], [28.9758624, 47.7346526], [28.97451, 47.734959], [28.971967, 47.7311547], [28.9682169, 47.7266146], [28.9671968, 47.7249659], [28.9666365, 47.7235783], [28.9660005, 47.7214092], [28.9637573, 47.7213486], [28.9633759, 47.7213264], [28.9632739, 47.7214503], [28.9632276, 47.7214943], [28.9631809, 47.7216434], [28.9631412, 47.7216421], [28.9631343, 47.721687], [28.9631399, 47.721747], [28.9631193, 47.722187], [28.9630917, 47.7224112], [28.9630795, 47.7224984], [28.9630786, 47.7225433], [28.9630503, 47.7228165], [28.9630474, 47.7228385], [28.9629399, 47.7228358], [28.9629297, 47.7229054], [28.9626144, 47.722881], [28.9620204, 47.7252541], [28.9618303, 47.7252325], [28.9617203, 47.7256084], [28.9615608, 47.7266852], [28.9616959, 47.7271345], [28.9616743, 47.7272777], [28.9615914, 47.7275589], [28.9615556, 47.7277652], [28.9615049, 47.728853], [28.9614937, 47.7289742], [28.9604626, 47.7291413], [28.9601784, 47.7291691], [28.9601419, 47.7291776], [28.959962, 47.7292028], [28.9596647, 47.7292542], [28.9562222, 47.7297681], [28.9561421, 47.7297568], [28.9561379, 47.7297296], [28.9550553, 47.729944], [28.9547201, 47.7299524], [28.9543911, 47.7299294], [28.9540598, 47.729901], [28.9539271, 47.7298967], [28.9537413, 47.7299194], [28.9537229, 47.7299403], [28.9535306, 47.7298971], [28.9533124, 47.729826], [28.953053, 47.7297759], [28.9528646, 47.729755], [28.952823, 47.729743], [28.951789, 47.7296479], [28.9509193, 47.7295684], [28.9503279, 47.729559], [28.9498658, 47.7295447], [28.9484258, 47.7295785], [28.9479922, 47.7296991], [28.947454, 47.7296169], [28.9469134, 47.7296226], [28.9464346, 47.7296075], [28.9460746, 47.7296526], [28.9455154, 47.7296628], [28.9451959, 47.7297042], [28.9451058, 47.7297862], [28.9424821, 47.730212], [28.9420203, 47.7297699], [28.938015, 47.7269936], [28.9377239, 47.727021], [28.9364919, 47.7275357], [28.9335473, 47.728909], [28.9333477, 47.7290084], [28.9330026, 47.7288848], [28.9316352, 47.7286964], [28.9310451, 47.7286785], [28.9303949, 47.7285991], [28.9299124, 47.7284996], [28.9288922, 47.7283896], [28.9280137, 47.7283209], [28.9272938, 47.7282199], [28.9257034, 47.728031], [28.9246333, 47.7278869], [28.923962, 47.7278505], [28.923861, 47.7278176], [28.9237928, 47.7279281], [28.9232877, 47.7293014], [28.9231669, 47.7299417], [28.9230093, 47.7304383], [28.9231093, 47.7304782], [28.9253034, 47.7323443], [28.925751, 47.7328035], [28.9261116, 47.7331382], [28.9267869, 47.7335984], [28.9277359, 47.7343081], [28.9278236, 47.734449], [28.9278171, 47.7346996], [28.9271457, 47.7380237], [28.9272348, 47.7384775], [28.9273151, 47.7388876], [28.9256791, 47.7389433], [28.9246798, 47.739044], [28.9234204, 47.7393679], [28.9226955, 47.7394492], [28.9217786, 47.7394771], [28.9207782, 47.7395835], [28.9197937, 47.7396632], [28.9153868, 47.7400672], [28.913719, 47.7402292], [28.9120017, 47.7403846], [28.9101986, 47.7405656], [28.9098206, 47.7406037], [28.9146086, 47.7457004], [28.9147893, 47.7457225], [28.9153442, 47.7457857], [28.9153433, 47.7460775], [28.9153622, 47.7462767], [28.915368, 47.7468538], [28.9153658, 47.7475368], [28.9153578, 47.7481385], [28.9153806, 47.7489017], [28.9153707, 47.7496133], [28.9153654, 47.7498419], [28.9153528, 47.7510463], [28.9153424, 47.7514264], [28.9147954, 47.7519869], [28.9146517, 47.7521221], [28.9145534, 47.7522699], [28.9086292, 47.7587479], [28.9070159, 47.7605294], [28.9062104, 47.7613865], [28.905977, 47.7615204], [28.9057832, 47.7616308], [28.9047974, 47.7621945], [28.9020232, 47.7637426], [28.9018776, 47.7638287], [28.9003864, 47.7644378], [28.8990707, 47.7649917], [28.8994479, 47.7648845], [28.8998222, 47.7647473], [28.9004462, 47.7645374], [28.900855, 47.7644384], [28.9015364, 47.7642794], [28.9019979, 47.7641316], [28.9023271, 47.7640406], [28.9025958, 47.7639652], [28.9031445, 47.7638144], [28.9071927, 47.7626353], [28.9087249, 47.7621859], [28.909179, 47.7620785], [28.909461, 47.761966], [28.9096661, 47.7618378], [28.9102713, 47.7613103], [28.9107709, 47.7608448], [28.9109691, 47.7606821], [28.9114036, 47.7602675], [28.9118573, 47.7599334], [28.912072, 47.7598808], [28.9122183, 47.7599149], [28.9124329, 47.7601486], [28.9120681, 47.7608311], [28.9118351, 47.761163], [28.9115339, 47.7616824], [28.9111271, 47.7622925], [28.9107083, 47.7628829], [28.9102929, 47.7635199], [28.9112842, 47.7638773], [28.9134911, 47.764613], [28.914287, 47.7648683], [28.9166931, 47.7656374], [28.9167151, 47.7650478], [28.9167567, 47.7646347], [28.9168801, 47.7645379], [28.9171057, 47.7644214], [28.9189061, 47.7638898], [28.9198725, 47.7635618], [28.9207966, 47.7632741], [28.9227719, 47.7626882], [28.9239388, 47.7623129], [28.9242355, 47.762178], [28.9254082, 47.7617598], [28.927325, 47.7612021], [28.9290189, 47.7606879], [28.9304918, 47.7602961], [28.9317529, 47.7599265], [28.9328115, 47.7595835], [28.93705, 47.7582418], [28.9416371, 47.7567769], [28.9417488, 47.7567426], [28.9418665, 47.7567162], [28.9419845, 47.7567315], [28.9420734, 47.7567709], [28.9428775, 47.7572701], [28.9479341, 47.7601027], [28.9499696, 47.7612406], [28.9509769, 47.7618037], [28.9493754, 47.7640874], [28.9490983, 47.7644839], [28.9485793, 47.7649131], [28.9481604, 47.7652102], [28.9476795, 47.7655496], [28.9473226, 47.7657884], [28.9468096, 47.7660543], [28.9463508, 47.7662725], [28.9459229, 47.7664484], [28.9453543, 47.7666249], [28.9445285, 47.7668712], [28.9437969, 47.7671539], [28.9431972, 47.7673464], [28.9428555, 47.7675535], [28.942343, 47.7678615], [28.9420284, 47.7680434], [28.9417859, 47.7682066], [28.9413977, 47.7684554], [28.9410558, 47.7686466], [28.9407217, 47.7688273], [28.940317, 47.7689873], [28.9394527, 47.7691427], [28.9392709, 47.7691857], [28.9388331, 47.7692794], [28.9384861, 47.7693448], [28.9382501, 47.7693838], [28.9377817, 47.7694733], [28.9375698, 47.7695281], [28.9370617, 47.7696545], [28.9367454, 47.7697332], [28.9364148, 47.7697802], [28.9360438, 47.7698344], [28.9358331, 47.7698681], [28.9351549, 47.7699128], [28.9351217, 47.7698168], [28.9350044, 47.7696587], [28.9348799, 47.7695417], [28.9346809, 47.7694244], [28.9344173, 47.7693184], [28.9341466, 47.769274], [28.9337907, 47.769275], [28.9333939, 47.7692987], [28.9331837, 47.7693047], [28.9328719, 47.7693105], [28.9324988, 47.7693457], [28.932193, 47.7694337], [28.9319347, 47.7695306], [28.9318191, 47.769574], [28.9314826, 47.7696938], [28.9311732, 47.769807], [28.9308235, 47.7698925], [28.9304635, 47.7699803], [28.930073, 47.770068], [28.9297777, 47.770124], [28.929472, 47.7702029], [28.9291629, 47.7702794], [28.9290057, 47.7704479], [28.9288341, 47.7707101], [28.9287788, 47.7708401], [28.928716, 47.7710638], [28.9287285, 47.7711941], [28.9288023, 47.7712903], [28.92906, 47.7712776], [28.9293789, 47.7712399], [28.9296908, 47.7712273], [28.9298832, 47.771324], [28.9289371, 47.7722208], [28.9279021, 47.7731338], [28.9267419, 47.7741572], [28.9255621, 47.775095], [28.9250234, 47.7755196], [28.9246246, 47.7758642], [28.9243896, 47.7760608], [28.924583, 47.7761795], [28.9246689, 47.7762273], [28.9242105, 47.7765518], [28.9234826, 47.7772506], [28.9242804, 47.7777663], [28.9248758, 47.7781681], [28.9255432, 47.7786144], [28.925891, 47.7788156], [28.9260615, 47.7789275], [28.9262086, 47.779008], [28.9268076, 47.7793288], [28.9276081, 47.7797386], [28.9286669, 47.7790002], [28.9288441, 47.779123], [28.9292177, 47.7793788], [28.9294993, 47.7795178], [28.9298948, 47.7796694], [28.9301515, 47.779539], [28.9303998, 47.7798723], [28.9304989, 47.7800537], [28.9306049, 47.7801805], [28.930818, 47.7803922], [28.9313031, 47.7808044], [28.9318871, 47.7813175], [28.9319354, 47.7813572], [28.9320527, 47.7812987], [28.9331894, 47.7807758], [28.9329822, 47.7810373], [28.9326389, 47.7814974], [28.9327378, 47.7815546], [28.9368396, 47.7847102], [28.9419794, 47.7886638], [28.941961, 47.7888131], [28.9426424, 47.7893665], [28.9433859, 47.7899715], [28.9437144, 47.7902464], [28.946258, 47.7923028], [28.9463373, 47.7922929], [28.9468544, 47.7923277], [28.9469061, 47.7923563], [28.9469326, 47.7924311], [28.9464707, 47.7927305], [28.9461828, 47.7929655], [28.9459468, 47.793137], [28.945835, 47.7932195], [28.9457566, 47.7932528], [28.9459769, 47.7934129], [28.9445399, 47.794514], [28.9429463, 47.7944962], [28.9409758, 47.7951608], [28.9400008, 47.7956587], [28.939214, 47.7959122], [28.9387596, 47.7962484], [28.9382702, 47.7964879], [28.9381765, 47.7965308], [28.9366204, 47.7972497], [28.9358307, 47.7980523], [28.9359209, 47.7982635], [28.9361323, 47.7983378], [28.9394703, 47.8002042], [28.9412956, 47.8011869], [28.9414513, 47.8011093], [28.9418069, 47.8013067], [28.9418665, 47.8013397], [28.9420302, 47.8015], [28.9426399, 47.8021925], [28.9434709, 47.8031088], [28.9447591, 47.8025158], [28.9452871, 47.8022812], [28.9457407, 47.8020577], [28.9465876, 47.8016534], [28.9472454, 47.8012797], [28.9475697, 47.8010332], [28.9482421, 47.8007041], [28.9492632, 47.800608], [28.949651, 47.8005822], [28.9499726, 47.8005058], [28.950826, 47.8012318], [28.9511332, 47.8015205], [28.9511596, 47.8015456], [28.9513077, 47.8015096], [28.9518952, 47.8020834], [28.9518578, 47.8021685], [28.9517635, 47.8022283], [28.9518374, 47.8022961], [28.9518734, 47.8023175], [28.9528626, 47.803362], [28.952886, 47.8033856], [28.953554, 47.8040873], [28.9536474, 47.804175], [28.9547324, 47.805194], [28.9548311, 47.8052993], [28.9550719, 47.8054988], [28.9555041, 47.8055131], [28.9556945, 47.8054784], [28.9558931, 47.8054113], [28.9583093, 47.8043106], [28.9600775, 47.8034686], [28.9607623, 47.8031525], [28.961112, 47.802968], [28.9621715, 47.8024784], [28.9624529, 47.8023662], [28.962678, 47.802271], [28.9629354, 47.8022179], [28.9650742, 47.8019882], [28.9694278, 47.8015474], [28.9694462, 47.8016779], [28.9693905, 47.8018743], [28.9692598, 47.802137], [28.9684521, 47.8030059], [28.9680359, 47.8037816], [28.9680739, 47.8039841], [28.9687263, 47.8046169], [28.9690282, 47.8046436], [28.9694418, 47.8045841], [28.9699881, 47.8038577], [28.970338, 47.8035654], [28.9703711, 47.803432], [28.970666, 47.8028922], [28.9708186, 47.8028148], [28.9710762, 47.8027894], [28.9712777, 47.8028752], [28.9714147, 47.8029614], [28.971405, 47.8030988], [28.9712645, 47.8033395], [28.9712125, 47.8034594], [28.9712208, 47.8035505], [28.9712799, 47.8037176], [28.9714381, 47.8039153], [28.9716475, 47.8041017], [28.9717321, 47.8041715], [28.9718308, 47.8042195], [28.972148, 47.8042515], [28.9724958, 47.8042275], [28.9726817, 47.8041976], [28.9736223, 47.803926], [28.9758159, 47.8032296], [28.9762656, 47.8029488], [28.9771026, 47.8021984], [28.9776103, 47.8018474], [28.9782, 47.8014228], [28.9786339, 47.8010542], [28.9790265, 47.8007161], [28.9797025, 47.8004254], [28.9800728, 47.8005789], [28.9811768, 47.8005298], [28.9818965, 47.8001373], [28.9829432, 47.800132], [28.9841511, 47.8001886], [28.9847107, 47.8000702], [28.985468, 47.799846], [28.9865866, 47.7995988], [28.9871439, 47.7995147], [28.9871216, 47.7994559], [28.9883924, 47.7993014], [28.9884223, 47.7993593], [28.9897952, 47.7991071], [28.9908761, 47.7989086], [28.9925193, 47.798631], [28.9910678, 47.7951614], [28.9892112, 47.7903745], [29.0078007, 47.7892802]]]}}]}