{"type": "Feature", "properties": {"name": "Rabnirez Prefecture", "source": "OpenStreetMap (osm relations 1435790 Raionul Rezina + 1702217 Rybnitsa District), merged"}, "geometry": {"type": "Polygon", "coordinates": [[[29.0144262, 47.5307476], [29.0117985, 47.5301089], [29.0111153, 47.529939], [29.0104309, 47.5297913], [29.0094387, 47.5295648], [29.0080588, 47.5292694], [29.0070947, 47.5290489], [29.0067569, 47.5289307], [29.0020553, 47.5277526], [28.9976821, 47.5266263], [28.9975706, 47.5266422], [28.9975174, 47.526695], [28.996295, 47.5263194], [28.993925, 47.5256519], [28.9909755, 47.524849], [28.9907779, 47.5249521], [28.9906297, 47.5249746], [28.989672, 47.525927], [28.989237, 47.5263367], [28.9885339, 47.5269988], [28.9884607, 47.5270675], [28.9869698, 47.5284691], [28.9867993, 47.5286428], [28.9867271, 47.5287163], [28.9851884, 47.5302251], [28.9851568, 47.5302563], [28.9834648, 47.5319287], [28.983428, 47.5319652], [28.9748855, 47.5295511], [28.9738739, 47.5293278], [28.9725163, 47.5318018], [28.9709781, 47.5343921], [28.9708065, 47.5348147], [28.9707905, 47.5348543], [28.970971, 47.5348087], [28.9709036, 47.5348756], [28.9706111, 47.5351662], [28.9696538, 47.5361172], [28.9681232, 47.5382482], [28.964795, 47.5454275], [28.9647632, 47.5454627], [28.965176, 47.5455403], [28.9657139, 47.5457045], [28.9662541, 47.5458475], [28.9669252, 47.5460371], [28.9677331, 47.5462722], [28.9686218, 47.54653], [28.9689577, 47.54665], [28.9692255, 47.5467562], [28.9696154, 47.5469294], [28.9696953, 47.5469714], [28.9697738, 47.5470475], [28.9697039, 47.5471915], [28.9695239, 47.5474504], [28.9693349, 47.5477282], [28.9691582, 47.5480017], [28.9688969, 47.5484062], [28.9687882, 47.5486131], [28.9686517, 47.548833], [28.9685053, 47.5489451], [28.9683125, 47.5490471], [28.9682936, 47.5491107], [28.9684517, 47.5491577], [28.9742756, 47.5508869], [28.9730289, 47.5525399], [28.9726422, 47.5530526], [28.9725941, 47.5531261], [28.9725064, 47.55326], [28.9724183, 47.5533945], [28.9723298, 47.5535294], [28.972241, 47.5536651], [28.9721518, 47.5538012], [28.9720622, 47.5539379], [28.9720106, 47.5540146], [28.9719621, 47.5540866], [28.9719133, 47.5541589], [28.9718644, 47.5542314], [28.9718153, 47.5543043], [28.971766, 47.5543774], [28.9717164, 47.5544509], [28.9716667, 47.5545246], [28.9716168, 47.5545987], [28.9715666, 47.5546731], [28.9715164, 47.5547476], [28.9714659, 47.5548226], [28.9714152, 47.5548978], [28.9713642, 47.5549734], [28.9713131, 47.5550492], [28.9700098, 47.5546561], [28.9699497, 47.5546399], [28.9678636, 47.5540168], [28.9677672, 47.554194], [28.9673942, 47.5548873], [28.9669088, 47.55609], [28.966746, 47.5564532], [28.9663095, 47.5574276], [28.9659629, 47.5584044], [28.9656435, 47.5590314], [28.9650767, 47.5588827], [28.964535, 47.5587406], [28.9639903, 47.5585976], [28.9634603, 47.5584586], [28.9629091, 47.5583139], [28.9626052, 47.5582342], [28.9623727, 47.5581737], [28.961837, 47.5580345], [28.9613059, 47.5578966], [28.9607769, 47.5577592], [28.9605065, 47.5576889], [28.960216, 47.5576069], [28.9594489, 47.5573906], [28.959427, 47.5574331], [28.9587792, 47.5589807], [28.9578417, 47.5611144], [28.9574156, 47.5618701], [28.9567667, 47.5629609], [28.9567381, 47.5630089], [28.9560615, 47.5641462], [28.9554598, 47.5651067], [28.9554143, 47.5651733], [28.9546479, 47.5662934], [28.9542922, 47.5668727], [28.9542643, 47.5669182], [28.9533201, 47.5684554], [28.9525276, 47.5697459], [28.9524571, 47.5698721], [28.9524423, 47.5698971], [28.9523928, 47.5699806], [28.9519262, 47.5707939], [28.950817, 47.5725972], [28.9507908, 47.5726398], [28.9500154, 47.5739003], [28.9494541, 47.5748616], [28.9494289, 47.5749048], [28.9480615, 47.5772462], [28.9477389, 47.5777956], [28.947714, 47.577838], [28.9465275, 47.5797481], [28.9459847, 47.5794728], [28.9458676, 47.579426], [28.9454681, 47.5792663], [28.9444422, 47.5789906], [28.9444195, 47.5789844], [28.9429487, 47.5785777], [28.9428871, 47.5785607], [28.9415432, 47.5782019], [28.9414458, 47.5781755], [28.9399168, 47.5777592], [28.9398113, 47.5777306], [28.9383153, 47.5773106], [28.9373819, 47.5770366], [28.9366994, 47.5767989], [28.9359491, 47.5765374], [28.9351941, 47.5762339], [28.9349886, 47.5761513], [28.9349201, 47.5761238], [28.9341202, 47.5758022], [28.9337432, 47.5756729], [28.9323832, 47.5752067], [28.9310524, 47.5747503], [28.929744, 47.5742957], [28.9291853, 47.5740896], [28.9284841, 47.5738057], [28.9278644, 47.5746825], [28.9274926, 47.5751712], [28.9271519, 47.5754111], [28.9260155, 47.5761166], [28.9253428, 47.5765575], [28.9242246, 47.5772899], [28.9232728, 47.5778937], [28.923234, 47.5779183], [28.9226538, 47.5782865], [28.9220426, 47.5786919], [28.9219108, 47.578677], [28.921857, 47.5787337], [28.9218577, 47.578809], [28.9218263, 47.5788825], [28.9217617, 47.5789776], [28.9216551, 47.5790617], [28.921554, 47.5791493], [28.9214473, 47.5792261], [28.9212495, 47.5793215], [28.9209887, 47.5794768], [28.9208697, 47.5795857], [28.9208146, 47.5796361], [28.9205911, 47.5799083], [28.9204809, 47.5801257], [28.9204137, 47.5802582], [28.9202611, 47.5805184], [28.9200974, 47.5807812], [28.919928, 47.5810327], [28.9197305, 47.5813571], [28.9195488, 47.5816452], [28.9193441, 47.5819711], [28.9192031, 47.5822195], [28.9191055, 47.58242], [28.91904, 47.5826066], [28.9189886, 47.5827653], [28.918952, 47.5828943], [28.918875, 47.5831047], [28.9188011, 47.5833091], [28.9186693, 47.5835568], [28.9185901, 47.5836989], [28.9184937, 47.5839347], [28.9184543, 47.5841014], [28.918462, 47.5842876], [28.9185665, 47.5844912], [28.9186529, 47.5846217], [28.9187291, 47.5847158], [28.9188736, 47.5848842], [28.9189897, 47.5850808], [28.9189906, 47.585167], [28.918978, 47.5852236], [28.9189498, 47.5852894], [28.9189028, 47.5854706], [28.9188906, 47.5855697], [28.9189227, 47.5857103], [28.9189544, 47.5858082], [28.9189913, 47.5859795], [28.9189745, 47.586156], [28.9189418, 47.5863076], [28.9188234, 47.5864766], [28.9187431, 47.5866513], [28.9186394, 47.5869088], [28.9179074, 47.5869238], [28.9163519, 47.5868029], [28.9159807, 47.5867518], [28.9145412, 47.5865038], [28.9142497, 47.5863109], [28.9139015, 47.5860549], [28.9135766, 47.585771], [28.9133638, 47.5855817], [28.9131041, 47.5853808], [28.9127442, 47.5851156], [28.9124245, 47.5848299], [28.912197, 47.5846347], [28.911872, 47.5843527], [28.9117029, 47.5844331], [28.9113242, 47.5845699], [28.9108692, 47.5847573], [28.9102875, 47.5849959], [28.9097932, 47.5851742], [28.9096238, 47.5852932], [28.9091731, 47.5857638], [28.908859, 47.5860523], [28.9087417, 47.5861364], [28.9085963, 47.5863799], [28.9084249, 47.586712], [28.9082688, 47.5869241], [28.9080589, 47.5870281], [28.9076795, 47.5871645], [28.9071794, 47.5873317], [28.9069916, 47.587358], [28.9067604, 47.5873372], [28.906357, 47.587317], [28.9059994, 47.5872869], [28.9057416, 47.5872841], [28.9054721, 47.5872773], [28.9050094, 47.5872873], [28.9046523, 47.5873087], [28.9041719, 47.5873068], [28.9039809, 47.5870841], [28.9038234, 47.5869068], [28.9035847, 47.5866607], [28.9031122, 47.58635], [28.9026613, 47.5860211], [28.90241, 47.5858266], [28.9021635, 47.5857841], [28.9020849, 47.5855802], [28.9020699, 47.5855498], [28.9011322, 47.5856923], [28.8998392, 47.5857968], [28.8966575, 47.5860477], [28.8948599, 47.5862875], [28.893701, 47.5864651], [28.8938977, 47.5868038], [28.89415, 47.5873394], [28.8943371, 47.5875723], [28.8943396, 47.5876479], [28.8944161, 47.5877683], [28.8944784, 47.5878633], [28.8945668, 47.5879863], [28.8948301, 47.5883094], [28.8950545, 47.5885553], [28.8952056, 47.5887612], [28.8953116, 47.5889056], [28.8955517, 47.5892765], [28.8958269, 47.5896634], [28.8964003, 47.5902647], [28.8966447, 47.5904519], [28.8972622, 47.5909943], [28.8977794, 47.5914813], [28.8980393, 47.5917584], [28.8983442, 47.5921512], [28.8985732, 47.5924224], [28.8988423, 47.5927425], [28.8990272, 47.592996], [28.8991187, 47.5931369], [28.8992167, 47.5932629], [28.8990769, 47.5933632], [28.8988962, 47.5935558], [28.8986765, 47.5938052], [28.898422, 47.5940963], [28.8981112, 47.5944695], [28.8979439, 47.5946844], [28.8976483, 47.5950531], [28.89738, 47.5952759], [28.8968644, 47.5956306], [28.8964404, 47.5959061], [28.8958696, 47.5962299], [28.8953951, 47.5965086], [28.8949556, 47.5967767], [28.8939955, 47.5973267], [28.8936694, 47.5974947], [28.892767, 47.5967073], [28.8924213, 47.5964232], [28.8919422, 47.5959731], [28.8910358, 47.5952184], [28.8902753, 47.5945774], [28.8897943, 47.5941402], [28.8895503, 47.5939239], [28.8893584, 47.593753], [28.8891384, 47.5935474], [28.8887784, 47.5932654], [28.8881734, 47.5927805], [28.887639, 47.5923271], [28.8870396, 47.5918243], [28.8865553, 47.5914023], [28.8859223, 47.5908168], [28.8856864, 47.5906492], [28.8852229, 47.59032], [28.8846465, 47.5898107], [28.8841582, 47.5893071], [28.8836622, 47.5889225], [28.8832978, 47.5885135], [28.8822623, 47.587798], [28.8810318, 47.5869107], [28.8795996, 47.5860838], [28.8793056, 47.5859597], [28.879108, 47.585808], [28.8789545, 47.5856818], [28.8788273, 47.5855396], [28.8787438, 47.5853795], [28.8787098, 47.5851835], [28.8786081, 47.584956], [28.8785182, 47.5847453], [28.8785598, 47.5831947], [28.8782821, 47.58213], [28.8782178, 47.5812885], [28.8777695, 47.5779936], [28.8737708, 47.5774556], [28.8716689, 47.5771673], [28.8602792, 47.57512], [28.8603828, 47.5748901], [28.8606661, 47.5744768], [28.8614075, 47.5735346], [28.8616393, 47.5732602], [28.8619173, 47.5729024], [28.8622473, 47.572473], [28.8626582, 47.5719165], [28.8629529, 47.5714675], [28.8634338, 47.570879], [28.8639437, 47.5702666], [28.8641929, 47.5699644], [28.8645346, 47.569531], [28.8648474, 47.5691453], [28.8652011, 47.5687476], [28.8654967, 47.5684095], [28.8656733, 47.5681998], [28.8654478, 47.5682571], [28.8641445, 47.5684644], [28.8576802, 47.5699432], [28.8520277, 47.5710882], [28.8510316, 47.5712803], [28.8503533, 47.5714253], [28.8457121, 47.5723106], [28.8424522, 47.5729324], [28.842378, 47.5729465], [28.8413172, 47.5731488], [28.8410268, 47.5729922], [28.8406636, 47.5727963], [28.8402315, 47.5725632], [28.8397884, 47.5722747], [28.8393641, 47.5719978], [28.8392914, 47.5719533], [28.8386828, 47.5715809], [28.8378899, 47.5710956], [28.8359756, 47.5699239], [28.8352735, 47.5694943], [28.8346036, 47.5694511], [28.834563, 47.5694959], [28.8336258, 47.5705436], [28.8333526, 47.5708489], [28.8328441, 47.5714589], [28.8325729, 47.5717845], [28.8319455, 47.572725], [28.8308038, 47.5741426], [28.8292669, 47.5759648], [28.828391, 47.5767594], [28.8280729, 47.5771316], [28.8280395, 47.5771707], [28.8251424, 47.5805609], [28.8251049, 47.580589], [28.8247168, 47.5803081], [28.82414, 47.5799148], [28.8235329, 47.579509], [28.8228513, 47.5791165], [28.8227704, 47.5790332], [28.8222355, 47.5787573], [28.8219735, 47.578622], [28.8206311, 47.5779025], [28.8201395, 47.577518], [28.8200095, 47.5774164], [28.8185355, 47.5764739], [28.8177848, 47.5760042], [28.8179074, 47.5758862], [28.8181484, 47.5755676], [28.8191452, 47.5740946], [28.8192672, 47.5739045], [28.8193781, 47.5737317], [28.8194888, 47.5735593], [28.8195993, 47.5733872], [28.8197097, 47.5732153], [28.8197423, 47.5731643], [28.8198211, 47.5730441], [28.8199331, 47.5728736], [28.8199661, 47.5728232], [28.8200779, 47.572653], [28.8201894, 47.5724831], [28.8203006, 47.5723136], [28.8204115, 47.5721445], [28.8205222, 47.5719758], [28.8206328, 47.5718074], [28.8208902, 47.5714152], [28.8221427, 47.5693387], [28.8228594, 47.5681963], [28.8233231, 47.5674889], [28.8235384, 47.5672101], [28.8238848, 47.5668615], [28.8245358, 47.5664381], [28.8249996, 47.5661528], [28.8251763, 47.5661137], [28.8256172, 47.5660198], [28.8262035, 47.5658197], [28.8264202, 47.5657101], [28.8266559, 47.5655411], [28.8268998, 47.5653764], [28.8271207, 47.5651876], [28.8272667, 47.5649717], [28.8274606, 47.5645418], [28.8275624, 47.564382], [28.8276014, 47.5638895], [28.8276645, 47.5636672], [28.827676, 47.5634737], [28.8279314, 47.562827], [28.8279372, 47.5623522], [28.82806, 47.5618692], [28.8281828, 47.5613994], [28.8282679, 47.5610804], [28.8282842, 47.5608957], [28.8283336, 47.560779], [28.8283886, 47.5605557], [28.8283837, 47.5603512], [28.8283093, 47.5602059], [28.8281754, 47.5600981], [28.8280483, 47.5600382], [28.8276575, 47.5599066], [28.8276584, 47.5598272], [28.8260715, 47.5594512], [28.8249498, 47.5592085], [28.8245498, 47.5591029], [28.8240169, 47.5589759], [28.8233776, 47.5588277], [28.8229914, 47.558722], [28.8209123, 47.5581608], [28.8163587, 47.5571291], [28.8160947, 47.5570047], [28.8153068, 47.5564188], [28.8147714, 47.5567014], [28.8139386, 47.5578407], [28.8111502, 47.561828], [28.8110966, 47.5620448], [28.8104214, 47.5630041], [28.8090197, 47.5648471], [28.8088475, 47.5649309], [28.8086915, 47.5648766], [28.8074192, 47.5654132], [28.8071443, 47.5654823], [28.8067918, 47.5655624], [28.8064229, 47.5655793], [28.806142, 47.5655623], [28.8056451, 47.5654993], [28.8051333, 47.5654993], [28.8039135, 47.5655212], [28.8037526, 47.5657214], [28.8034924, 47.5658764], [28.8031524, 47.5659756], [28.8025612, 47.5660123], [28.8021537, 47.5660592], [28.8017026, 47.5661425], [28.8016165, 47.5661636], [28.8013757, 47.5662225], [28.8011447, 47.5662791], [28.8009089, 47.5663369], [28.8006756, 47.5663941], [28.7998147, 47.5665932], [28.7987692, 47.5667867], [28.7973475, 47.5670109], [28.7970058, 47.5670327], [28.7967883, 47.5670793], [28.7968359, 47.567231], [28.7963318, 47.5673066], [28.7957455, 47.5673625], [28.7951117, 47.5674411], [28.7944419, 47.567488], [28.7937814, 47.5675085], [28.7931322, 47.5675613], [28.7929296, 47.5676673], [28.792883, 47.5678994], [28.7928184, 47.5685266], [28.7927585, 47.5690347], [28.7926981, 47.5695104], [28.7925437, 47.5702434], [28.7924077, 47.5705447], [28.7922434, 47.5707771], [28.7919718, 47.5710564], [28.7917229, 47.571307], [28.7915261, 47.5714417], [28.7827618, 47.5728648], [28.7825751, 47.5728902], [28.7820639, 47.573021], [28.7818309, 47.57303], [28.7805948, 47.5726011], [28.7802012, 47.5723226], [28.7799587, 47.572163], [28.7793432, 47.5721293], [28.7791376, 47.5721036], [28.7790043, 47.571861], [28.7788206, 47.5714762], [28.7786507, 47.5714701], [28.7782211, 47.5715376], [28.7777576, 47.5716103], [28.7773017, 47.5716818], [28.7768529, 47.5717523], [28.776411, 47.5718216], [28.7759757, 47.5718899], [28.7758684, 47.5719301], [28.7719492, 47.5725679], [28.771037, 47.5726676], [28.770545, 47.5727744], [28.7703703, 47.5727785], [28.7692538, 47.5729686], [28.7683033, 47.5731544], [28.7681568, 47.5731621], [28.7650769, 47.5736547], [28.7639197, 47.5738305], [28.7636411, 47.5738935], [28.7630057, 47.5739361], [28.7613652, 47.5742018], [28.7582111, 47.5746945], [28.7575729, 47.5747426], [28.7556372, 47.5750781], [28.7556233, 47.5750538], [28.7554086, 47.5750952], [28.7559715, 47.5758768], [28.7563905, 47.5769824], [28.7567733, 47.5782238], [28.7568341, 47.5787449], [28.7570255, 47.5796959], [28.7574737, 47.5819629], [28.7575735, 47.5823934], [28.758294, 47.5845397], [28.7588736, 47.5867522], [28.7587615, 47.5867984], [28.7524939, 47.5893869], [28.749952, 47.5908318], [28.7486362, 47.5915532], [28.7459721, 47.5931315], [28.7413569, 47.5962427], [28.7363785, 47.5995652], [28.7360397, 47.599591], [28.7306, 47.6027043], [28.7279855, 47.6043022], [28.7250531, 47.6060771], [28.7215946, 47.6082508], [28.7204288, 47.6088572], [28.7163013, 47.6112362], [28.7150096, 47.6117715], [28.7107451, 47.6141039], [28.7104476, 47.6143077], [28.7085757, 47.6154504], [28.7054955, 47.6170657], [28.7051531, 47.6172118], [28.7023079, 47.6186035], [28.7019236, 47.6188012], [28.7017664, 47.6188822], [28.7014258, 47.6190567], [28.7011119, 47.6191735], [28.7006981, 47.619325], [28.7002963, 47.6195145], [28.6995238, 47.619946], [28.6989252, 47.620317], [28.6985113, 47.6205392], [28.6971974, 47.6214207], [28.6967671, 47.6215927], [28.6964437, 47.6217358], [28.6959745, 47.6221865], [28.6966222, 47.6243489], [28.6968502, 47.6249315], [28.6970629, 47.6257073], [28.6972486, 47.6264464], [28.6974479, 47.6271192], [28.6977027, 47.6278619], [28.6976944, 47.6280506], [28.6976328, 47.628256], [28.6973235, 47.6284391], [28.6969802, 47.6286139], [28.6898599, 47.6298564], [28.6876108, 47.6302575], [28.68852, 47.6320912], [28.6909147, 47.6348999], [28.6920463, 47.6363902], [28.6933533, 47.6381136], [28.694182, 47.6390559], [28.6958084, 47.640934], [28.6967537, 47.6424308], [28.6973644, 47.6433768], [28.69776, 47.6438752], [28.6999078, 47.6464034], [28.7022984, 47.6492477], [28.7038298, 47.651058], [28.7039814, 47.6512954], [28.698656, 47.6518467], [28.6985332, 47.6518991], [28.6934151, 47.6523452], [28.6922418, 47.6524139], [28.6904227, 47.6525994], [28.6870537, 47.6529912], [28.6857222, 47.6531775], [28.6685789, 47.6548317], [28.6642272, 47.654407], [28.6645737, 47.6537202], [28.6648838, 47.6531147], [28.6650906, 47.6524679], [28.6650943, 47.6520299], [28.6650234, 47.6516416], [28.6650452, 47.6511328], [28.6652795, 47.6505256], [28.6658292, 47.6495453], [28.665841, 47.6492448], [28.6658042, 47.648692], [28.6658632, 47.6484503], [28.6656391, 47.648467], [28.6617879, 47.6499368], [28.6614846, 47.6499378], [28.6612364, 47.650003], [28.6607707, 47.6503686], [28.65854, 47.6519709], [28.6569527, 47.6528102], [28.6556343, 47.6536725], [28.6532962, 47.6551158], [28.6521746, 47.6557832], [28.6511253, 47.6548089], [28.6494755, 47.6533639], [28.646794, 47.6512838], [28.6446846, 47.6519207], [28.6403624, 47.6531691], [28.6343798, 47.6550358], [28.6308198, 47.6560391], [28.6305414, 47.656179], [28.6273901, 47.657268], [28.6235337, 47.6585756], [28.6222765, 47.6588992], [28.6201384, 47.6593639], [28.6191328, 47.6595439], [28.6156138, 47.660275], [28.6095837, 47.6613488], [28.6079358, 47.6617589], [28.6055806, 47.6625295], [28.604087, 47.663114], [28.6037677, 47.6632496], [28.6026671, 47.663488], [28.6016065, 47.6637947], [28.5998032, 47.6641875], [28.5984942, 47.6644849], [28.5972867, 47.6648258], [28.5956999, 47.6652932], [28.5952522, 47.665445], [28.5951444, 47.665478], [28.5955663, 47.6664349], [28.5957278, 47.6669116], [28.5972608, 47.6700358], [28.5972228, 47.6703135], [28.5987307, 47.6734424], [28.5997777, 47.6749362], [28.6004259, 47.6759939], [28.6013672, 47.6773944], [28.6027414, 47.679506], [28.603996, 47.6816124], [28.6054291, 47.6841076], [28.6059403, 47.6850657], [28.6062011, 47.6856229], [28.6073209, 47.6875843], [28.6081957, 47.6890804], [28.6130404, 47.6975719], [28.6142231, 47.6995972], [28.6143952, 47.6998399], [28.614568, 47.700023], [28.615471, 47.700725], [28.6162742, 47.7013691], [28.6176747, 47.702414], [28.6187118, 47.7032757], [28.6189043, 47.703411], [28.6203699, 47.7046157], [28.6208275, 47.7048508], [28.6212973, 47.7050572], [28.6222691, 47.7053651], [28.6232424, 47.7056432], [28.6236402, 47.7058024], [28.6256971, 47.7064859], [28.6281441, 47.7072981], [28.6301665, 47.7079395], [28.6311249, 47.7082437], [28.6315651, 47.7083822], [28.6320103, 47.7085222], [28.6320231, 47.7085263], [28.632444, 47.7086743], [28.6328772, 47.7088269], [28.6333104, 47.7089793], [28.6337438, 47.7091318], [28.6341769, 47.7092842], [28.6344092, 47.7093659], [28.6346105, 47.7094362], [28.6350444, 47.7095877], [28.6354781, 47.7097392], [28.6359117, 47.7098906], [28.6363452, 47.7100419], [28.6368502, 47.7102183], [28.6371056, 47.7102389], [28.6376466, 47.7104602], [28.6382621, 47.7107979], [28.6387818, 47.7110986], [28.6390806, 47.7112892], [28.6398382, 47.7118151], [28.6408176, 47.7125394], [28.6411451, 47.7130928], [28.6421751, 47.7145322], [28.6432903, 47.7163105], [28.6447373, 47.7185303], [28.645906, 47.7203744], [28.6466787, 47.7217119], [28.6467713, 47.7219407], [28.6477249, 47.7241543], [28.6485174, 47.7258777], [28.6497142, 47.7283965], [28.6509087, 47.7298473], [28.6522027, 47.7313806], [28.6530681, 47.7323679], [28.654605, 47.7342223], [28.6571308, 47.7371385], [28.6586282, 47.7383322], [28.6602512, 47.7394299], [28.6620573, 47.7406049], [28.6636094, 47.7417885], [28.6638009, 47.7420828], [28.6638334, 47.7423384], [28.6643221, 47.7428443], [28.665171, 47.7438975], [28.6647126, 47.7443193], [28.6637857, 47.7446643], [28.6633781, 47.7439778], [28.662771, 47.743649], [28.6619208, 47.7436562], [28.6619648, 47.7438394], [28.6621228, 47.7443498], [28.6666299, 47.7504652], [28.6669033, 47.7503204], [28.6669019, 47.7500391], [28.6678444, 47.7498897], [28.6684699, 47.7493148], [28.669263, 47.7489213], [28.6701828, 47.7489007], [28.670512, 47.7490329], [28.6710527, 47.7489488], [28.6716545, 47.7485897], [28.6719788, 47.7488033], [28.6724562, 47.7487258], [28.6731859, 47.748521], [28.6730862, 47.7480961], [28.6738183, 47.7479543], [28.6766957, 47.7466692], [28.6793362, 47.7452683], [28.6797767, 47.7444766], [28.679646, 47.7440813], [28.6811256, 47.743107], [28.6801834, 47.7418192], [28.6831469, 47.7406408], [28.6831507, 47.740581], [28.6837539, 47.7403794], [28.6860097, 47.7395136], [28.6860541, 47.7394925], [28.6879716, 47.7388707], [28.6909891, 47.7380225], [28.6927105, 47.7375369], [28.6943794, 47.737086], [28.6944589, 47.7371279], [28.694934, 47.7370616], [28.6952475, 47.7368988], [28.6989364, 47.735076], [28.7005137, 47.7344413], [28.7013976, 47.7339582], [28.701966, 47.7337317], [28.7072556, 47.7319874], [28.7071973, 47.731899], [28.7073496, 47.7318727], [28.7075032, 47.7318165], [28.7075881, 47.7317871], [28.7078282, 47.7317042], [28.7080676, 47.7316215], [28.7083065, 47.7315391], [28.7085445, 47.7314568], [28.7087819, 47.7313749], [28.7090186, 47.7312932], [28.7092547, 47.7312116], [28.7094901, 47.7311303], [28.7097249, 47.7310492], [28.7099394, 47.7309752], [28.7099589, 47.7309682], [28.7101905, 47.7308849], [28.7104217, 47.7308017], [28.7106529, 47.7307187], [28.7111147, 47.7305526], [28.7113453, 47.7304697], [28.7115756, 47.7303869], [28.7116101, 47.7303745], [28.7118064, 47.7303048], [28.712037, 47.730223], [28.712267, 47.7301413], [28.7124966, 47.7300598], [28.7127256, 47.7299785], [28.7129541, 47.7298974], [28.7131821, 47.7298165], [28.7134095, 47.7297357], [28.7136365, 47.7296552], [28.7136883, 47.7296367], [28.7138648, 47.7295772], [28.7140928, 47.7295003], [28.7143197, 47.7294238], [28.7145458, 47.7293475], [28.714771, 47.7292716], [28.7150155, 47.7291891], [28.7152387, 47.7291138], [28.715461, 47.7290388], [28.7156825, 47.728964], [28.7159031, 47.7288896], [28.7161227, 47.7288155], [28.7163416, 47.7287417], [28.7165596, 47.7286682], [28.7167768, 47.7285949], [28.7169931, 47.728522], [28.7172086, 47.7284493], [28.7172388, 47.7284391], [28.7174169, 47.7283691], [28.7176245, 47.7282876], [28.7178325, 47.7282059], [28.7180412, 47.7281241], [28.7182502, 47.728042], [28.71846, 47.7279597], [28.71867, 47.7278772], [28.7188807, 47.7277945], [28.7190918, 47.7277117], [28.7193034, 47.7276287], [28.7193496, 47.7275919], [28.7195682, 47.7275147], [28.7231878, 47.7261803], [28.7261236, 47.7250588], [28.7274663, 47.7232755], [28.7283959, 47.7219074], [28.728596, 47.7216029], [28.728854, 47.7214272], [28.7289994, 47.7212655], [28.7291506, 47.7209859], [28.7300578, 47.7189933], [28.7309541, 47.7170043], [28.7314203, 47.7159678], [28.7316463, 47.7154587], [28.7318667, 47.7148861], [28.7329037, 47.7126136], [28.7329313, 47.7125531], [28.7329363, 47.7125442], [28.7334782, 47.7115454], [28.7337235, 47.7112025], [28.7339797, 47.7112454], [28.7350848, 47.7111938], [28.7357885, 47.7111609], [28.7358004, 47.7111604], [28.7365093, 47.7111377], [28.7372177, 47.7111149], [28.7379256, 47.7110923], [28.7386329, 47.7110696], [28.7400456, 47.7110241], [28.7401852, 47.7110197], [28.7414579, 47.7109703], [28.7415642, 47.7109661], [28.7421618, 47.7109471], [28.7428647, 47.7109248], [28.7435084, 47.7109044], [28.7435657, 47.7109057], [28.7442471, 47.7109217], [28.7442568, 47.7109216], [28.7449658, 47.7109098], [28.746132, 47.7108903], [28.7463864, 47.7108897], [28.7471952, 47.7108881], [28.7475043, 47.710868], [28.7482779, 47.7108175], [28.7492649, 47.7107813], [28.7494844, 47.7107777], [28.7505193, 47.7107608], [28.7512489, 47.710716], [28.7520847, 47.7106647], [28.7528803, 47.7106159], [28.7536833, 47.7105061], [28.7554253, 47.7103565], [28.7554207, 47.7104453], [28.7553934, 47.7105812], [28.754827, 47.7110534], [28.7547664, 47.7111309], [28.7545476, 47.7115436], [28.7543806, 47.7118356], [28.7540348, 47.7122387], [28.7535893, 47.712702], [28.753023, 47.7131868], [28.7527175, 47.7136891], [28.7522757, 47.7142284], [28.7518632, 47.7147986], [28.751569, 47.7151142], [28.7513699, 47.7154437], [28.7498924, 47.7171423], [28.7496841, 47.71705], [28.7492938, 47.7169373], [28.7489322, 47.7169566], [28.7480695, 47.7171408], [28.7476385, 47.7171558], [28.7472313, 47.7170707], [28.7461895, 47.7167783], [28.7453627, 47.7166223], [28.7447838, 47.7164903], [28.7438927, 47.7161726], [28.7434294, 47.7159986], [28.7429746, 47.7158683], [28.7424695, 47.7158501], [28.7422131, 47.7158931], [28.7420853, 47.7159906], [28.7419613, 47.7161463], [28.7416804, 47.7165861], [28.7408981, 47.7174716], [28.7403933, 47.7180929], [28.739507, 47.7191849], [28.738877, 47.7198924], [28.7379258, 47.7211627], [28.737503, 47.7217223], [28.738636, 47.7218697], [28.739566, 47.7220177], [28.7426406, 47.7225258], [28.7428337, 47.7225458], [28.7434105, 47.72264], [28.7458471, 47.7229966], [28.7465025, 47.7230803], [28.746904, 47.7231373], [28.7483574, 47.7233658], [28.7489876, 47.7234598], [28.7502481, 47.7236597], [28.7504294, 47.7236842], [28.7518716, 47.7239834], [28.752095, 47.7235965], [28.7523331, 47.7231689], [28.7525865, 47.7227717], [28.7527308, 47.722623], [28.7570805, 47.7232809], [28.75747, 47.7233333], [28.7585784, 47.7234822], [28.7590715, 47.7235485], [28.7595955, 47.7236098], [28.7605157, 47.7237174], [28.7612255, 47.7238005], [28.7613556, 47.7238161], [28.7632118, 47.7240382], [28.7635011, 47.7240868], [28.763804, 47.7241274], [28.7644514, 47.7242141], [28.7650721, 47.7242973], [28.7650357, 47.7243586], [28.7656525, 47.7244274], [28.7662347, 47.7245058], [28.7667973, 47.7245825], [28.7669579, 47.7246032], [28.7673417, 47.7246567], [28.7673809, 47.7246621], [28.7676586, 47.7247047], [28.7677486, 47.7247131], [28.7694773, 47.7248988], [28.7695613, 47.7249078], [28.769952, 47.7249428], [28.7703923, 47.7249842], [28.7707744, 47.7250293], [28.771261, 47.7250827], [28.7720994, 47.7251745], [28.7722057, 47.7251861], [28.7723753, 47.7252047], [28.7729911, 47.7252811], [28.7737546, 47.7253758], [28.7744616, 47.7254635], [28.7746114, 47.7254147], [28.772502, 47.7301384], [28.7723562, 47.7304235], [28.7721922, 47.7307428], [28.7720782, 47.7309649], [28.7719988, 47.7311196], [28.7719192, 47.7312744], [28.7718396, 47.7314293], [28.7717599, 47.7315841], [28.7717365, 47.7316297], [28.7716891, 47.7317153], [28.7713957, 47.7322449], [28.7712172, 47.7325669], [28.7711303, 47.7327237], [28.7710434, 47.7328804], [28.7708697, 47.7331939], [28.7707827, 47.7333508], [28.7706957, 47.7335075], [28.7706087, 47.7336643], [28.7705217, 47.7338211], [28.7704348, 47.7339778], [28.7703479, 47.7341346], [28.7702608, 47.7342914], [28.7701738, 47.7344482], [28.7700868, 47.734605], [28.7699998, 47.7347618], [28.7699128, 47.7349186], [28.7698453, 47.7350403], [28.7696397, 47.7353037], [28.7685824, 47.7378914], [28.7679693, 47.7394545], [28.7673543, 47.7403429], [28.7671963, 47.7405038], [28.7671204, 47.7405106], [28.767103, 47.7407559], [28.7670643, 47.7407878], [28.7669907, 47.7408485], [28.7669732, 47.7408917], [28.766937, 47.740981], [28.7663392, 47.7424562], [28.7660946, 47.7430598], [28.7652962, 47.7441231], [28.7651045, 47.7445709], [28.7651996, 47.744617], [28.7651693, 47.7447203], [28.7651429, 47.7448165], [28.7650683, 47.7449385], [28.7648341, 47.7452471], [28.7649752, 47.7455799], [28.7649777, 47.7457113], [28.7649356, 47.7458474], [28.764847, 47.7459881], [28.764759, 47.7461954], [28.7646923, 47.7463606], [28.7645656, 47.7465194], [28.7644014, 47.7466548], [28.7642236, 47.7467766], [28.7639092, 47.7472833], [28.7632309, 47.7475851], [28.7623894, 47.7477721], [28.7622078, 47.7478706], [28.7622874, 47.7482621], [28.7620385, 47.7485049], [28.7607698, 47.7490907], [28.7600541, 47.7497728], [28.7594279, 47.7502126], [28.7592095, 47.7507586], [28.7590759, 47.7511988], [28.7587488, 47.7516626], [28.7577316, 47.7523975], [28.7587915, 47.7533188], [28.758683, 47.7539465], [28.7587066, 47.7545438], [28.7587261, 47.754814], [28.7587611, 47.7554794], [28.7587976, 47.7561749], [28.7588376, 47.7569361], [28.7588813, 47.7571181], [28.7589193, 47.7575277], [28.7589596, 47.758397], [28.7589465, 47.7593917], [28.758938, 47.7595732], [28.7589364, 47.7596093], [28.7589353, 47.7596311], [28.7589189, 47.7599892], [28.7588477, 47.7609319], [28.7588485, 47.7614347], [28.7588489, 47.7617139], [28.7588509, 47.7629663], [28.7588243, 47.7633442], [28.7586421, 47.7634538], [28.7585565, 47.7635072], [28.7579976, 47.7634633], [28.7573753, 47.7634144], [28.756661, 47.7633583], [28.7557956, 47.7632904], [28.7524296, 47.7630262], [28.7510847, 47.7629206], [28.7509329, 47.7629605], [28.750961, 47.7629926], [28.7510458, 47.7630893], [28.7511122, 47.7632844], [28.7512138, 47.7635825], [28.751261, 47.7637211], [28.7513624, 47.7640188], [28.7515021, 47.7644289], [28.7516011, 47.7647192], [28.7516999, 47.7650094], [28.7517987, 47.7652993], [28.7518973, 47.7655888], [28.7519941, 47.7658728], [28.7520422, 47.766014], [28.7521384, 47.7662977], [28.7522348, 47.7665817], [28.7523308, 47.7668649], [28.7524268, 47.767148], [28.7525228, 47.7674309], [28.7526187, 47.7677135], [28.7527145, 47.7679959], [28.7528121, 47.7682837], [28.7529096, 47.7685711], [28.753007, 47.7688584], [28.7531043, 47.7691453], [28.7531501, 47.7692801], [28.7531606, 47.7694384], [28.7531664, 47.7695251], [28.7532307, 47.7697155], [28.7534189, 47.7702734], [28.7535146, 47.770557], [28.7536101, 47.7708398], [28.7537059, 47.7711239], [28.7537613, 47.7712879], [28.7538035, 47.771407], [28.7538538, 47.7715489], [28.7539351, 47.7717784], [28.7540348, 47.7720598], [28.7541344, 47.7723408], [28.7542029, 47.7725342], [28.7542512, 47.772619], [28.7543154, 47.7727318], [28.7543723, 47.7728954], [28.7544694, 47.7731741], [28.754533, 47.7733567], [28.7545634, 47.7734517], [28.7546524, 47.77373], [28.7547421, 47.7740104], [28.754921, 47.7745695], [28.755011, 47.7748508], [28.7551003, 47.7751299], [28.755145, 47.7752695], [28.7551892, 47.7754077], [28.7552781, 47.7756851], [28.7553677, 47.7759649], [28.7554572, 47.7762446], [28.7555453, 47.7765196], [28.7556327, 47.7767926], [28.7557205, 47.7770669], [28.7558967, 47.7776171], [28.7559867, 47.7778982], [28.756076, 47.7781769], [28.7561651, 47.7784552], [28.7562478, 47.7787135], [28.7562473, 47.7787346], [28.7562394, 47.7790285], [28.7564701, 47.7790218], [28.7569256, 47.780589], [28.7572665, 47.7817619], [28.7573118, 47.7819177], [28.7576947, 47.7821987], [28.7599747, 47.7827167], [28.7615458, 47.7830633], [28.7624386, 47.7832521], [28.762872, 47.7833291], [28.7641172, 47.7835284], [28.7648522, 47.7836813], [28.7668137, 47.7840891], [28.7691831, 47.7846172], [28.7688553, 47.7795819], [28.7936266, 47.7789213], [28.7944064, 47.779363], [28.7946305, 47.7795355], [28.7947065, 47.7796521], [28.7947631, 47.7798231], [28.7948574, 47.7799447], [28.7960083, 47.7812716], [28.7972168, 47.7820507], [28.797359, 47.7821546], [28.797506, 47.7822388], [28.7980252, 47.7825122], [28.7988853, 47.7830718], [28.7992725, 47.783257], [28.8005067, 47.7836904], [28.8016142, 47.7840792], [28.8042039, 47.784942], [28.8057277, 47.7854699], [28.8064414, 47.7857213], [28.8077874, 47.7862143], [28.8083213, 47.7864099], [28.8095712, 47.7858031], [28.8125466, 47.784412], [28.8141955, 47.7836242], [28.8147541, 47.7833188], [28.8152362, 47.7829903], [28.8154633, 47.7828098], [28.8158053, 47.7825281], [28.816907, 47.7814859], [28.8184278, 47.7799824], [28.8187393, 47.7801948], [28.8187614, 47.7801726], [28.8193155, 47.7805922], [28.8195104, 47.7809564], [28.8201044, 47.781385], [28.8210263, 47.7823122], [28.8225926, 47.7839151], [28.8232165, 47.7844335], [28.8236013, 47.7851913], [28.82401, 47.785966], [28.8244099, 47.7864455], [28.8247592, 47.7868044], [28.8251843, 47.7872413], [28.8255944, 47.7876627], [28.8260065, 47.7880862], [28.8264225, 47.7885137], [28.8264721, 47.7885633], [28.8267763, 47.7889026], [28.8270848, 47.7892467], [28.8278021, 47.7901382], [28.8281878, 47.7906197], [28.8282969, 47.790711], [28.8282682, 47.790848], [28.8293114, 47.7918866], [28.8298088, 47.7923819], [28.8302558, 47.7928268], [28.8307541, 47.793323], [28.8313237, 47.79389], [28.8315049, 47.7940289], [28.8318235, 47.7944044], [28.8321795, 47.794824], [28.8325323, 47.7952398], [28.8327468, 47.7954879], [28.8328395, 47.7956019], [28.8331294, 47.7959372], [28.8334578, 47.7963465], [28.8342284, 47.7976988], [28.8349093, 47.7988937], [28.8352308, 47.799414], [28.8354076, 47.7995426], [28.8355399, 47.799655], [28.8361819, 47.8001999], [28.8365054, 47.8004745], [28.8368287, 47.800749], [28.8371522, 47.8010236], [28.8374876, 47.8013083], [28.8375161, 47.8013415], [28.837434, 47.8014315], [28.8376075, 47.8016346], [28.8376344, 47.8016741], [28.8408983, 47.8054955], [28.8411048, 47.8059006], [28.8412594, 47.8060852], [28.84183, 47.8064547], [28.8418108, 47.806524], [28.8426311, 47.8065052], [28.8442724, 47.8064414], [28.845202, 47.8064675], [28.8461933, 47.8065215], [28.8467765, 47.8065804], [28.8485222, 47.8066564], [28.8486334, 47.8068986], [28.8485939, 47.8074842], [28.8475065, 47.8088047], [28.8481707, 47.8091845], [28.8501759, 47.8101238], [28.8526217, 47.8111731], [28.8525154, 47.8129068], [28.8523692, 47.813155], [28.8511351, 47.8132838], [28.8510014, 47.8134922], [28.8510782, 47.8143549], [28.8510938, 47.8147009], [28.8519384, 47.8149225], [28.8523199, 47.8150618], [28.8526939, 47.8155308], [28.8528072, 47.8157859], [28.8532128, 47.816649], [28.8534424, 47.8171439], [28.8537056, 47.8170936], [28.8541043, 47.8171267], [28.8547865, 47.8173643], [28.8552197, 47.8173891], [28.8554551, 47.8174831], [28.8557834, 47.8178806], [28.8563964, 47.8182038], [28.8564743, 47.8181159], [28.8570133, 47.8175079], [28.8574558, 47.8174349], [28.8579722, 47.817548], [28.858257, 47.8175241], [28.8587734, 47.8171743], [28.8590569, 47.8170609], [28.8594723, 47.8171715], [28.8599299, 47.8171005], [28.860798, 47.8167578], [28.8612631, 47.8166995], [28.8623225, 47.8168328], [28.8633219, 47.8168984], [28.8637768, 47.8170412], [28.8640138, 47.8172052], [28.8655098, 47.8173138], [28.8658835, 47.8167775], [28.8663929, 47.8161745], [28.8673759, 47.8153479], [28.8675457, 47.8152012], [28.8677019, 47.8152785], [28.8682107, 47.8149811], [28.8684255, 47.8149434], [28.8686624, 47.8150381], [28.8690305, 47.8150931], [28.8696335, 47.8150062], [28.8710065, 47.8151622], [28.8718649, 47.8150232], [28.8730054, 47.8144474], [28.8735027, 47.8145057], [28.8740596, 47.8143333], [28.8746439, 47.8141053], [28.8752785, 47.8140066], [28.8758671, 47.8140262], [28.8763043, 47.8141273], [28.8765206, 47.81428], [28.8765553, 47.8143994], [28.8786885, 47.8156953], [28.8791834, 47.8154567], [28.8801397, 47.8151525], [28.880332, 47.8151301], [28.8809487, 47.8149544], [28.8817498, 47.8147504], [28.8831019, 47.8145091], [28.8835109, 47.8144634], [28.8836447, 47.8144429], [28.8838783, 47.8143794], [28.8839516, 47.8143512], [28.8840163, 47.8143417], [28.8844351, 47.8142276], [28.8857351, 47.8139579], [28.8867445, 47.8136837], [28.8872244, 47.813665], [28.88853, 47.8129312], [28.8886636, 47.8127347], [28.8890334, 47.8125207], [28.8903113, 47.8120249], [28.8910949, 47.8116051], [28.891407, 47.8115073], [28.8924574, 47.8119199], [28.8934258, 47.8121182], [28.8940739, 47.8121988], [28.8948272, 47.81222], [28.8953272, 47.8122929], [28.895829, 47.8125013], [28.8960943, 47.8124991], [28.8966313, 47.8122213], [28.8966994, 47.8120688], [28.8967329, 47.8115374], [28.8969309, 47.8113556], [28.8972633, 47.8111738], [28.8984048, 47.8108903], [28.8997726, 47.8101127], [28.9002453, 47.8097354], [28.9013668, 47.8085797], [28.9016547, 47.8083783], [28.9021592, 47.8083054], [28.9025337, 47.8085982], [28.9028582, 47.8090615], [28.9034357, 47.8094854], [28.9035635, 47.8097293], [28.9035302, 47.8109511], [28.9041085, 47.8111265], [28.9041159, 47.8119458], [28.9036532, 47.8121632], [28.9036094, 47.8125813], [28.9037075, 47.8133091], [28.9034338, 47.8134005], [28.9026241, 47.8133298], [28.9024734, 47.813362], [28.9024356, 47.8135923], [28.9024726, 47.8137891], [28.9024633, 47.8140413], [28.9024481, 47.8142817], [28.9024617, 47.8144826], [28.9024346, 47.8147033], [28.9024316, 47.8149949], [28.902405, 47.8152747], [28.9023956, 47.8155111], [28.9023867, 47.8158027], [28.9023651, 47.815988], [28.9023854, 47.8162755], [28.9024633, 47.8164623], [28.9024181, 47.816628], [28.9023737, 47.8168803], [28.9023753, 47.8170458], [28.9023654, 47.817235], [28.9022793, 47.8173024], [28.9024883, 47.8173266], [28.9024661, 47.8175603], [28.9022364, 47.8176434], [28.9022374, 47.8177479], [28.9021889, 47.8180036], [28.9020817, 47.8185141], [28.9020152, 47.8188921], [28.9019753, 47.8191142], [28.9019352, 47.8193222], [28.9018881, 47.8195254], [28.9018571, 47.8197232], [28.9017884, 47.8198732], [28.9016614, 47.8200164], [28.9015891, 47.8201442], [28.9015558, 47.8203356], [28.901499, 47.8206168], [28.9014518, 47.8208177], [28.9013979, 47.8210446], [28.9013578, 47.821298], [28.9013246, 47.821487], [28.9012979, 47.8216241], [28.9012917, 47.8217091], [28.9012648, 47.821832], [28.9012249, 47.8220541], [28.9011913, 47.8222054], [28.9011572, 47.8223047], [28.9011578, 47.8223661], [28.9011514, 47.8224322], [28.901138, 47.8224937], [28.9011456, 47.8225598], [28.9011321, 47.8226118], [28.9010982, 47.82273], [28.901092, 47.822815], [28.9010717, 47.8228954], [28.9010448, 47.8230135], [28.901032, 47.8231411], [28.9010062, 47.8233726], [28.9009868, 47.8235486], [28.9009526, 47.8236361], [28.9009198, 47.8238676], [28.900886, 47.824], [28.9008737, 47.8241795], [28.900862, 47.8244156], [28.9008847, 47.824595], [28.9010912, 47.8249199], [28.9012905, 47.8252307], [28.9015111, 47.8255674], [28.9016817, 47.8258027], [28.9018266, 47.8259626], [28.9020435, 47.8261029], [28.902248, 47.8290204], [28.9023989, 47.8331479], [28.9023425, 47.8335266], [28.9028036, 47.8419937], [28.902822, 47.842857], [28.903135, 47.846204], [28.903193, 47.8464871], [28.9034518, 47.8464104], [28.9037454, 47.8463005], [28.9040666, 47.846148], [28.9043231, 47.8460087], [28.9045552, 47.8458956], [28.9047155, 47.845791], [28.9048694, 47.8457384], [28.9070026, 47.8448966], [28.9077697, 47.8446277], [28.9082218, 47.8444637], [28.9097052, 47.8437978], [28.9097641, 47.8438171], [28.910711, 47.8441268], [28.9116529, 47.8445712], [28.9120214, 47.8448251], [28.9132188, 47.8459233], [28.9133023, 47.8459888], [28.9133711, 47.8459767], [28.9135196, 47.8460462], [28.9137879, 47.8462463], [28.9141587, 47.8465319], [28.9146923, 47.8469427], [28.915228, 47.847355], [28.915766, 47.8477692], [28.9160357, 47.8479768], [28.9165772, 47.8483936], [28.916898, 47.8486407], [28.9171098, 47.8488185], [28.917625, 47.849251], [28.9178814, 47.8494662], [28.9179511, 47.8495248], [28.9180956, 47.8496771], [28.9183751, 47.8499012], [28.9188939, 47.8503169], [28.9194122, 47.8507323], [28.9196712, 47.8509399], [28.9201889, 47.8513548], [28.9205444, 47.8516398], [28.9207057, 47.8517697], [28.921221, 47.8521847], [28.9217357, 47.8525991], [28.9222496, 47.8530131], [28.9227629, 47.8534264], [28.9232752, 47.853839], [28.923787, 47.8542511], [28.9242981, 47.8546626], [28.9248085, 47.8550737], [28.9253181, 47.855484], [28.9256724, 47.8557693], [28.925831, 47.8558915], [28.9260323, 47.8560466], [28.9269933, 47.8568349], [28.927165, 47.8568794], [28.9272927, 47.8569161], [28.9274149, 47.8569347], [28.9276352, 47.856914], [28.9279142, 47.8568038], [28.9280824, 47.8567163], [28.9298422, 47.8555839], [28.9300403, 47.8554564], [28.9302862, 47.8553176], [28.9313553, 47.8547309], [28.9315595, 47.8546141], [28.9324042, 47.854125], [28.9323795, 47.8541056], [28.9324031, 47.8540918], [28.9325428, 47.8540034], [28.9334579, 47.8534302], [28.9350767, 47.8523749], [28.9378027, 47.850604], [28.9379643, 47.8504637], [28.9380591, 47.8505432], [28.9387144, 47.8509752], [28.9394778, 47.8514784], [28.9402412, 47.8519817], [28.9406229, 47.8522333], [28.9410046, 47.8524849], [28.9413863, 47.8527365], [28.9417679, 47.8529881], [28.9421555, 47.8532436], [28.9425696, 47.8535166], [28.9430189, 47.8538127], [28.9434966, 47.8541276], [28.9439752, 47.854443], [28.9444536, 47.8547583], [28.9449319, 47.8550735], [28.9450477, 47.8551457], [28.9450035, 47.8551725], [28.945663, 47.8556148], [28.946129, 47.8559273], [28.9465945, 47.8562396], [28.9466605, 47.8562838], [28.9470616, 47.8565506], [28.9475291, 47.8568615], [28.9479965, 47.8571723], [28.9482301, 47.8573277], [28.9486975, 47.8576384], [28.9488692, 47.8577527], [28.949167, 47.8579477], [28.9496383, 47.8582564], [28.9496672, 47.8582752], [28.9496822, 47.8582852], [28.9501315, 47.8585794], [28.950604, 47.8588888], [28.9510751, 47.8591973], [28.9515692, 47.8595208], [28.9527926, 47.85856], [28.9534714, 47.857884], [28.9541705, 47.8574744], [28.9545669, 47.8571869], [28.9551527, 47.856732], [28.9551876, 47.8567049], [28.9577735, 47.8546971], [28.9591631, 47.8536142], [28.9625727, 47.850957], [28.9625667, 47.8509532], [28.9627436, 47.8508183], [28.9629633, 47.8507246], [28.9630669, 47.8506827], [28.9638969, 47.8506038], [28.9642679, 47.8505441], [28.9647294, 47.8503004], [28.9652151, 47.8499048], [28.9657683, 47.8495968], [28.9664722, 47.8489631], [28.9671569, 47.8480114], [28.967644, 47.8470337], [28.9686708, 47.8462114], [28.9693734, 47.8456498], [28.9700823, 47.8454019], [28.9702282, 47.8452463], [28.9706027, 47.8453747], [28.9711128, 47.8455517], [28.9717477, 47.845772], [28.9723825, 47.8459923], [28.9730173, 47.8462125], [28.973652, 47.8464327], [28.9742869, 47.8466529], [28.9749218, 47.8468732], [28.9751946, 47.846968], [28.9751905, 47.8469713], [28.975247, 47.846991], [28.9752513, 47.8469876], [28.9755568, 47.8470935], [28.9756027, 47.8471144], [28.9757956, 47.8471817], [28.9758247, 47.8471918], [28.9756844, 47.8473311], [28.9741217, 47.8487188], [28.9733362, 47.8493983], [28.9730499, 47.8496594], [28.9726385, 47.849997], [28.972008, 47.8505589], [28.9706549, 47.8517518], [28.9697864, 47.8525348], [28.9693679, 47.852905], [28.9688639, 47.8533254], [28.9686823, 47.8534861], [28.9684562, 47.8536744], [28.9676394, 47.8544163], [28.9659696, 47.8558202], [28.9640514, 47.857319], [28.9633159, 47.857917], [28.9621733, 47.8588257], [28.9611951, 47.8595758], [28.9597937, 47.8606763], [28.9593987, 47.8609885], [28.9578463, 47.862175], [28.95628, 47.863362], [28.955572, 47.8639038], [28.9543305, 47.8648464], [28.9531403, 47.8657346], [28.951333, 47.8671033], [28.9501633, 47.8679807], [28.9498831, 47.8682043], [28.9498251, 47.8682506], [28.9496935, 47.8683556], [28.9495614, 47.8682967], [28.9494292, 47.8682377], [28.9472158, 47.8694171], [28.9429817, 47.8715071], [28.9414805, 47.8722899], [28.9394967, 47.8734135], [28.9383869, 47.8739467], [28.9374266, 47.8743078], [28.9359628, 47.8746751], [28.9346782, 47.8748879], [28.9305738, 47.8757245], [28.9286058, 47.87611], [28.9274142, 47.8763019], [28.9286369, 47.8791655], [28.9291901, 47.8804611], [28.9280103, 47.880464], [28.9280145, 47.880542], [28.928043, 47.880836], [28.9266142, 47.8808072], [28.9266124, 47.8814062], [28.9268809, 47.8814127], [28.9268915, 47.8818812], [28.9269105, 47.8823796], [28.9263775, 47.8827697], [28.9263575, 47.8834755], [28.9265277, 47.8845136], [28.912432, 47.8855014], [28.907032, 47.8860619], [28.9075972, 47.8878909], [28.9078684, 47.888772], [28.9083637, 47.8889543], [28.9090023, 47.8893496], [28.9095266, 47.8898766], [28.9097997, 47.8899328], [28.9106128, 47.8898282], [28.9115543, 47.8914252], [28.911727, 47.8919884], [28.9118734, 47.8919501], [28.9118951, 47.8922065], [28.9117944, 47.8924816], [28.9114742, 47.8931524], [28.9100214, 47.894063], [28.910571, 47.8946061], [28.9130051, 47.8931352], [28.9131027, 47.8932219], [28.9145412, 47.8931482], [28.9147043, 47.8932284], [28.9155254, 47.8941176], [28.9159761, 47.8945354], [28.9164243, 47.894666], [28.9170872, 47.8948261], [28.9174833, 47.8953221], [28.9184636, 47.895626], [28.9185314, 47.8961275], [28.9184404, 47.8963333], [28.9183538, 47.8964342], [28.9181501, 47.8973654], [28.9185911, 47.8979656], [28.9189977, 47.8983012], [28.9195317, 47.8995266], [28.9196413, 47.8996049], [28.9198329, 47.8997894], [28.9201466, 47.8998311], [28.9206546, 47.9002424], [28.9209466, 47.9004777], [28.9213442, 47.9010123], [28.9222022, 47.9017822], [28.9225732, 47.9020411], [28.9227077, 47.9022349], [28.9236964, 47.9020968], [28.9239559, 47.901565], [28.9246625, 47.9010175], [28.925531, 47.9006301], [28.9263437, 47.9002879], [28.9290198, 47.9019081], [28.9275761, 47.9026227], [28.9270249, 47.9032615], [28.9269555, 47.903826], [28.9269493, 47.9049859], [28.9279579, 47.9056041], [28.9279569, 47.9060183], [28.9275901, 47.9063172], [28.9271206, 47.9065018], [28.9266584, 47.9068851], [28.9258445, 47.9075284], [28.9240505, 47.9103199], [28.9241467, 47.9104784], [28.9224979, 47.9120911], [28.9215789, 47.9141168], [28.9198147, 47.9177251], [28.9207386, 47.9180466], [28.9211278, 47.9179075], [28.9217041, 47.917942], [28.9222377, 47.9172648], [28.9224806, 47.9171669], [28.9228703, 47.9172653], [28.9234038, 47.9174717], [28.9240974, 47.917786], [28.9248815, 47.9178833], [28.9265131, 47.9175742], [28.9277622, 47.91736], [28.9283139, 47.9173949], [28.9303893, 47.9168685], [28.9318785, 47.9169263], [28.9328882, 47.9166828], [28.9330772, 47.9169061], [28.9320337, 47.9175643], [28.9312825, 47.9179083], [28.9306301, 47.9182617], [28.9292085, 47.9186943], [28.9285557, 47.9190366], [28.9275334, 47.9193852], [28.9265693, 47.9195284], [28.9255101, 47.9195461], [28.92427, 47.9202242], [28.9237229, 47.9205371], [28.923338, 47.9211262], [28.9226748, 47.922518], [28.9219698, 47.9227839], [28.9218379, 47.9234378], [28.9214847, 47.9241064], [28.9211566, 47.9243439], [28.9201452, 47.9254322], [28.9201168, 47.9257751], [28.9209432, 47.9267885], [28.9216847, 47.9270633], [28.9219949, 47.9270084], [28.9224062, 47.9265762], [28.9227486, 47.9265042], [28.9235594, 47.9264299], [28.9240395, 47.9267477], [28.9241729, 47.9274634], [28.9275852, 47.9284058], [28.9278874, 47.9287984], [28.9280112, 47.9292547], [28.9282966, 47.9294156], [28.9290226, 47.9297127], [28.9302635, 47.9299348], [28.9310858, 47.9301695], [28.9313903, 47.930181], [28.9322164, 47.9300787], [28.9327443, 47.9301306], [28.9331024, 47.930478], [28.9335541, 47.9306913], [28.9339549, 47.9306404], [28.9340393, 47.9311415], [28.9341383, 47.9373199], [28.9341118, 47.9386438], [28.9340695, 47.9407617], [28.9341587, 47.9418317], [28.9342651, 47.9420397], [28.9380943, 47.9420083], [28.937969, 47.9441533], [28.9439382, 47.9440855], [28.9443797, 47.9440228], [28.9446617, 47.9439793], [28.9462717, 47.9439493], [28.9491436, 47.9439254], [28.9511478, 47.9438859], [28.9518771, 47.9438265], [28.9525006, 47.9437938], [28.9540838, 47.9438166], [28.9553038, 47.943909], [28.9580955, 47.943936], [28.9593541, 47.9438538], [28.9595311, 47.9459246], [28.9598719, 47.9493954], [28.960313, 47.9533394], [28.960481, 47.9534332], [28.9606769, 47.9596955], [28.9564389, 47.9628716], [28.9508613, 47.9671693], [28.9464085, 47.970439], [28.9465863, 47.970524], [28.9478559, 47.9711314], [28.951856, 47.9731384], [28.9553972, 47.9750721], [28.9556896, 47.9752318], [28.961602, 47.97919], [28.9734657, 47.973839], [28.9742034, 47.9735062], [28.9783402, 47.9713508], [28.9806659, 47.9699661], [28.9819283, 47.9692831], [28.9832105, 47.9683956], [28.9849949, 47.9676729], [28.9860095, 47.9669939], [28.98774, 47.9655686], [28.9889008, 47.9650929], [28.9906328, 47.9638037], [28.9944845, 47.961349], [28.9959786, 47.9615637], [28.99642, 47.9616033], [28.9978625, 47.9618344], [28.998025, 47.9618577], [29.0003045, 47.9621852], [29.0017466, 47.9580943], [29.007503, 47.9569806], [29.0079678, 47.9570286], [29.008873, 47.957122], [29.0091948, 47.9571552], [29.0110705, 47.9567], [29.0124656, 47.9562528], [29.0148099, 47.9547461], [29.0156937, 47.9540224], [29.017393, 47.9522213], [29.0191968, 47.9508078], [29.0193811, 47.9507297], [29.0195876, 47.9506422], [29.0210304, 47.9498283], [29.0233082, 47.9482891], [29.0243798, 47.9469994], [29.025129, 47.9461799], [29.0261859, 47.9454765], [29.0280073, 47.9446544], [29.0326337, 47.9426417], [29.0334398, 47.9431619], [29.0344327, 47.9441257], [29.0355918, 47.9457287], [29.0358594, 47.9461885], [29.0368412, 47.9478756], [29.0403391, 47.9471868], [29.0415055, 47.9467163], [29.0436151, 47.9460334], [29.046209, 47.9449893], [29.0482346, 47.9442752], [29.0522247, 47.9427372], [29.0569341, 47.9426376], [29.0619824, 47.9430152], [29.0737632, 47.9438964], [29.0766193, 47.9447886], [29.0797144, 47.9457555], [29.0828334, 47.9461602], [29.0867456, 47.9466677], [29.0866192, 47.9474792], [29.0860667, 47.9504599], [29.0854229, 47.9550897], [29.0849929, 47.9576506], [29.0847368, 47.9591753], [29.0846811, 47.9593401], [29.0846474, 47.9594399], [29.0844488, 47.9598392], [29.0842072, 47.9605194], [29.0838764, 47.9610978], [29.0836236, 47.9617244], [29.0834394, 47.9621641], [29.0830117, 47.9628524], [29.0824322, 47.963866], [29.0821966, 47.9642781], [29.0818815, 47.9647127], [29.0813499, 47.9654459], [29.079434, 47.9669565], [29.0786084, 47.9675341], [29.0785783, 47.9681763], [29.0789659, 47.968593], [29.079292, 47.9691303], [29.0791996, 47.9692486], [29.0790001, 47.9695043], [29.0783721, 47.969911], [29.0780478, 47.9702937], [29.0787302, 47.9709223], [29.0794659, 47.9714324], [29.0812283, 47.9716618], [29.0822396, 47.9716154], [29.086116, 47.9688857], [29.0874042, 47.9680644], [29.0910406, 47.9683347], [29.0922932, 47.9666103], [29.0945688, 47.9630468], [29.0946641, 47.9613401], [29.0946669, 47.9606337], [29.0949361, 47.9602417], [29.0953062, 47.9597685], [29.0959586, 47.9595564], [29.0970655, 47.9596807], [29.0976967, 47.9598534], [29.0981213, 47.9601256], [29.0972038, 47.9666356], [29.0965122, 47.9733086], [29.0957494, 47.9733786], [29.0938955, 47.9731464], [29.0925377, 47.9730984], [29.0915023, 47.9735574], [29.0914892, 47.9737884], [29.0914829, 47.9738999], [29.0908926, 47.9741671], [29.0903472, 47.9743887], [29.0877382, 47.9767039], [29.0852967, 47.9755137], [29.0840737, 47.9773335], [29.0866579, 47.9791263], [29.0897525, 47.9812731], [29.0919459, 47.9802269], [29.0924414, 47.982609], [29.0928891, 47.9830705], [29.0960335, 47.9831793], [29.0977473, 47.982213], [29.1020255, 47.9829228], [29.1022097, 47.9816687], [29.1031392, 47.9819153], [29.1037343, 47.9823179], [29.1043256, 47.9824169], [29.1046402, 47.9824695], [29.1050436, 47.982431], [29.1055579, 47.982382], [29.1089776, 47.9841144], [29.1109541, 47.9838292], [29.1149718, 47.9832496], [29.1190807, 47.9835461], [29.1263778, 47.9822282], [29.1266526, 47.9822414], [29.130998, 47.9823591], [29.1313153, 47.9836261], [29.1307085, 47.9846409], [29.1304137, 47.9856224], [29.129833, 47.9864789], [29.1285677, 47.9873134], [29.1269196, 47.9882598], [29.1240059, 47.9884008], [29.1248714, 47.993668], [29.1354138, 47.9934753], [29.1376571, 47.9934343], [29.1389243, 47.9934111], [29.1528612, 47.9933725], [29.1626554, 47.9935495], [29.1751445, 47.9937751], [29.1753154, 47.9937782], [29.1759315, 47.9908526], [29.176588, 47.9854444], [29.1774834, 47.9801521], [29.1776266, 47.9793167], [29.1785166, 47.9741242], [29.1792305, 47.9688782], [29.180474, 47.9642178], [29.1814481, 47.9643649], [29.18254, 47.9647084], [29.1834928, 47.9648931], [29.1844802, 47.9648185], [29.1853013, 47.9644947], [29.1856641, 47.9620875], [29.1868585, 47.9536209], [29.1879953, 47.9473651], [29.1888587, 47.9433804], [29.1893601, 47.9391176], [29.1899858, 47.9359085], [29.190874, 47.9308046], [29.1908954, 47.9306819], [29.1913455, 47.927646], [29.1918034, 47.9245566], [29.1926392, 47.9201267], [29.1932119, 47.918008], [29.1938771, 47.9151648], [29.1940114, 47.914549], [29.1944554, 47.9125122], [29.195215, 47.9092546], [29.195246, 47.9090989], [29.1957348, 47.9066479], [29.1963104, 47.9039111], [29.1968963, 47.9013943], [29.1970242, 47.9008451], [29.1974653, 47.8988642], [29.1976575, 47.8978018], [29.1978613, 47.8966749], [29.1984932, 47.8943615], [29.1988726, 47.8925991], [29.199173, 47.891204], [29.1999313, 47.8875781], [29.2006376, 47.8843692], [29.2042053, 47.8847193], [29.2071157, 47.885059], [29.2131984, 47.8857689], [29.2131888, 47.8871556], [29.2130796, 47.8884243], [29.2132766, 47.8885915], [29.2138937, 47.8887519], [29.2143054, 47.8890859], [29.2143926, 47.8893985], [29.2147381, 47.8896983], [29.2150915, 47.8900678], [29.2154731, 47.8914558], [29.2157004, 47.8930634], [29.2156844, 47.8941938], [29.2159649, 47.8957145], [29.2159829, 47.8959682], [29.2162098, 47.8960737], [29.2181029, 47.895732], [29.2182544, 47.8953124], [29.2184606, 47.8950553], [29.2190191, 47.8948967], [29.2200869, 47.8944789], [29.2208627, 47.894119], [29.2218606, 47.893006], [29.2235462, 47.8910929], [29.2235115, 47.8907082], [29.2231331, 47.890108], [29.2229443, 47.8895026], [29.2222768, 47.8891264], [29.2212023, 47.8887099], [29.2200404, 47.8889376], [29.2193445, 47.888734], [29.218393, 47.8884369], [29.2169822, 47.8884824], [29.2167582, 47.8872477], [29.2161263, 47.8872441], [29.2159418, 47.8863861], [29.2158497, 47.8859576], [29.2211175, 47.8863993], [29.2243023, 47.8866298], [29.2302976, 47.8871551], [29.2310201, 47.8872184], [29.2319221, 47.8872997], [29.2338752, 47.8874758], [29.2409882, 47.8881347], [29.244927, 47.888418], [29.2472111, 47.8885195], [29.2511755, 47.8886883], [29.2563919, 47.8891097], [29.258372, 47.8894173], [29.2591788, 47.889449], [29.2598428, 47.889475], [29.2631004, 47.8896848], [29.2683119, 47.8900371], [29.2716126, 47.8902531], [29.274353, 47.8903334], [29.2754985, 47.8900732], [29.2767589, 47.8899295], [29.2776979, 47.8896968], [29.2799083, 47.8894064], [29.2812682, 47.8884345], [29.2815702, 47.8879451], [29.2813307, 47.8873893], [29.2805045, 47.8870608], [29.278497, 47.8867098], [29.2777998, 47.8864924], [29.2773901, 47.8858413], [29.2770905, 47.884619], [29.2769415, 47.8839955], [29.2768097, 47.8830893], [29.2764552, 47.8829333], [29.2760784, 47.8825556], [29.2747291, 47.8809405], [29.2739292, 47.8797817], [29.2738634, 47.8796863], [29.2735409, 47.8794712], [29.2734976, 47.8794449], [29.2729441, 47.879292], [29.2714639, 47.8792134], [29.2699286, 47.8789926], [29.268964, 47.8788095], [29.2686015, 47.8783986], [29.2678745, 47.8773381], [29.2673604, 47.875611], [29.2670632, 47.8752027], [29.263953, 47.8740488], [29.2587044, 47.872217], [29.2549518, 47.870861], [29.2546, 47.8707372], [29.25168, 47.8697094], [29.2489813, 47.8688833], [29.2470193, 47.8684449], [29.2467112, 47.868376], [29.245787, 47.8681694], [29.2431293, 47.8673376], [29.2428867, 47.8668492], [29.2426908, 47.8667595], [29.242566, 47.8667023], [29.240701, 47.8658479], [29.2399958, 47.8655248], [29.2379253, 47.8639893], [29.2360326, 47.8625278], [29.2357334, 47.861076], [29.2360784, 47.8594457], [29.2353769, 47.858948], [29.2343276, 47.8585291], [29.2342199, 47.8584894], [29.2325584, 47.8578775], [29.2305264, 47.8575413], [29.2294634, 47.8576663], [29.2290823, 47.857446], [29.2273364, 47.8564365], [29.2243747, 47.8531263], [29.222554, 47.8505268], [29.2222913, 47.8501517], [29.2219439, 47.8496556], [29.2211772, 47.8483768], [29.2185552, 47.8467077], [29.217315, 47.8445522], [29.2170883, 47.844378], [29.2161607, 47.8436651], [29.2157871, 47.843378], [29.2155519, 47.8422393], [29.2154559, 47.8417746], [29.2147912, 47.8406422], [29.2127853, 47.8399362], [29.2126822, 47.8399295], [29.2114861, 47.8398519], [29.2104924, 47.8398547], [29.2090459, 47.8385835], [29.2073227, 47.8368438], [29.2055459, 47.83393], [29.2054665, 47.8332103], [29.2044645, 47.831812], [29.2038844, 47.8311218], [29.2037801, 47.8303527], [29.20307, 47.8294276], [29.2024604, 47.8283484], [29.2018261, 47.8268075], [29.201226, 47.825043], [29.2009743, 47.8238228], [29.200539, 47.8231089], [29.1993898, 47.8213856], [29.1984213, 47.8198447], [29.1985373, 47.8185095], [29.1990474, 47.8180305], [29.1993501, 47.8177462], [29.1999042, 47.8173015], [29.2008361, 47.8165537], [29.2020357, 47.8154967], [29.2035294, 47.8138834], [29.2037221, 47.8136952], [29.2041466, 47.8132808], [29.2049958, 47.8124516], [29.2072341, 47.8104435], [29.2084213, 47.8091872], [29.209449, 47.8081109], [29.2102245, 47.8072986], [29.2115979, 47.8058372], [29.2121751, 47.805196], [29.2126747, 47.8046411], [29.2133264, 47.8038809], [29.2142212, 47.8028373], [29.214955, 47.802325], [29.2152489, 47.8021221], [29.2158784, 47.8015014], [29.2160764, 47.8011863], [29.2168211, 47.8007873], [29.217665, 47.7999888], [29.2182851, 47.799402], [29.2193075, 47.7984346], [29.2321482, 47.7974476], [29.2326968, 47.7974054], [29.2368318, 47.8013353], [29.239644, 47.8040078], [29.2404111, 47.8047368], [29.2436594, 47.8078235], [29.2470933, 47.8109431], [29.2490091, 47.8104953], [29.2524704, 47.8098103], [29.2526625, 47.8097577], [29.2535959, 47.8095023], [29.2656586, 47.8063782], [29.2699115, 47.805347], [29.2702305, 47.8052696], [29.2749115, 47.8041345], [29.2751809, 47.8040405], [29.2761347, 47.8037076], [29.2756959, 47.8023871], [29.2763869, 47.8020815], [29.2757851, 47.8009828], [29.2748623, 47.799298], [29.2735995, 47.7969924], [29.2705687, 47.7914583], [29.2543668, 47.7618649], [29.2489916, 47.752043], [29.2486064, 47.7513391], [29.220125, 47.7402364], [29.2152313, 47.7387023], [29.2116219, 47.7319582], [29.2105184, 47.7299817], [29.2081256, 47.7256516], [29.205881, 47.7215452], [29.2047026, 47.7195538], [29.2043638, 47.7190685], [29.2046462, 47.7187415], [29.2114141, 47.7108814], [29.2114738, 47.7108121], [29.2140793, 47.70765], [29.2149747, 47.7065971], [29.215284, 47.7062334], [29.2158136, 47.7056107], [29.2166784, 47.7045766], [29.2174161, 47.7038536], [29.2176349, 47.7036263], [29.2184153, 47.7026847], [29.2185976, 47.7023366], [29.2200765, 47.7005974], [29.2226652, 47.6975527], [29.2204065, 47.6965729], [29.2311065, 47.6837634], [29.2279458, 47.6825344], [29.2278456, 47.6824955], [29.22607, 47.6824137], [29.2228749, 47.6824117], [29.2214298, 47.6824522], [29.220761, 47.682471], [29.2199389, 47.6824107], [29.2196742, 47.6822581], [29.2195489, 47.6820405], [29.2198409, 47.6803069], [29.2199238, 47.6789889], [29.2192982, 47.6765349], [29.2192821, 47.6764136], [29.2194948, 47.6643902], [29.2196066, 47.6580692], [29.2098184, 47.6579888], [29.2096579, 47.6537916], [29.2094515, 47.6501475], [29.2093865, 47.6422973], [29.2172249, 47.6423905], [29.2179572, 47.6423992], [29.2274415, 47.6425119], [29.2339567, 47.6425893], [29.2303842, 47.6395502], [29.226073, 47.6365951], [29.2244124, 47.6356347], [29.2231542, 47.6349549], [29.2230799, 47.6342989], [29.2219832, 47.6324033], [29.2218885, 47.6322176], [29.2207766, 47.6300378], [29.2202793, 47.6290768], [29.2191967, 47.6269847], [29.2177678, 47.6266463], [29.2142755, 47.625874], [29.2138906, 47.6258091], [29.2134926, 47.6259358], [29.2111939, 47.6275397], [29.2097971, 47.6284507], [29.209605, 47.628576], [29.209469, 47.6282952], [29.2095645, 47.6278357], [29.2102227, 47.6267154], [29.2108664, 47.6249703], [29.2119155, 47.6227712], [29.2144235, 47.6178195], [29.2148128, 47.6171386], [29.2151895, 47.6164796], [29.2162679, 47.6145934], [29.2176647, 47.6122875], [29.2170727, 47.6120201], [29.2135418, 47.6103735], [29.2108007, 47.6088076], [29.2072194, 47.6063392], [29.2056972, 47.6051618], [29.2032544, 47.6038235], [29.2021812, 47.6032355], [29.2007093, 47.6024291], [29.2035485, 47.5979845], [29.1994132, 47.5938307], [29.1921154, 47.5919317], [29.1906972, 47.5889617], [29.1862223, 47.5859728], [29.185966, 47.5857538], [29.186152, 47.5849246], [29.1886522, 47.5835873], [29.1886191, 47.5829562], [29.1885782, 47.5815083], [29.1874787, 47.5802363], [29.1863604, 47.579137], [29.1849196, 47.5782315], [29.1852621, 47.5770175], [29.1855377, 47.5764363], [29.1851404, 47.5758323], [29.185287, 47.5754754], [29.1856859, 47.5741883], [29.1854076, 47.5738787], [29.1850843, 47.5734091], [29.1849649, 47.5729831], [29.1846596, 47.5719641], [29.1770193, 47.5695047], [29.1748986, 47.568822], [29.1710009, 47.5675673], [29.1666644, 47.5712499], [29.1644996, 47.5705064], [29.1585559, 47.5683551], [29.1573096, 47.5679473], [29.1567242, 47.5676832], [29.1565288, 47.5675951], [29.1382138, 47.5615217], [29.1171078, 47.5544786], [29.1169452, 47.5544243], [29.1289709, 47.5376576], [29.1289805, 47.5376442], [29.1402662, 47.5220933], [29.1473284, 47.5123597], [29.1485907, 47.5106197], [29.1515404, 47.5065536], [29.1690004, 47.5129413], [29.1717698, 47.5139545], [29.1762204, 47.5155523], [29.1813347, 47.5174534], [29.1817525, 47.5176062], [29.1834012, 47.5182092], [29.1850496, 47.5188122], [29.1880497, 47.515701], [29.1892719, 47.514322], [29.1896722, 47.5139663], [29.1895273, 47.5133986], [29.1852555, 47.5115086], [29.1848592, 47.5113332], [29.1851309, 47.5089322], [29.1837257, 47.5087556], [29.183574, 47.5084382], [29.183742, 47.5077722], [29.1836021, 47.5059742], [29.1829747, 47.5063728], [29.1815047, 47.5061081], [29.1802382, 47.5058394], [29.1787974, 47.5045081], [29.1768544, 47.5038436], [29.1759696, 47.5033412], [29.1734063, 47.5016666], [29.1689216, 47.4988518], [29.1639675, 47.4957088], [29.1632356, 47.4953526], [29.1618967, 47.4948973], [29.1594213, 47.4933588], [29.1564815, 47.4912214], [29.1548845, 47.4902297], [29.1454663, 47.4842755], [29.1394371, 47.4806711], [29.1386168, 47.4801341], [29.138283, 47.4797371], [29.1358167, 47.4781868], [29.1345075, 47.4778467], [29.1363848, 47.4688917], [29.1375738, 47.4644674], [29.1366664, 47.4641861], [29.1242591, 47.4635109], [29.1186864, 47.4634857], [29.1166717, 47.4671369], [29.1165841, 47.467285], [29.112543, 47.4724237], [29.1102304, 47.4742127], [29.1058886, 47.4775119], [29.0972534, 47.4824321], [29.0906632, 47.4865449], [29.0756747, 47.4922673], [29.0716204, 47.4939202], [29.0627498, 47.4981829], [29.0581415, 47.5000361], [29.0521559, 47.5023755], [29.0486379, 47.5049759], [29.0409431, 47.5095588], [29.0274918, 47.516465], [29.0240516, 47.519476], [29.0222481, 47.5212008], [29.0208042, 47.5225334], [29.0191412, 47.5250257], [29.0190995, 47.5252268], [29.0176744, 47.5310692], [29.0144262, 47.5307476]]]}}