{"type": "Feature", "properties": {"name": "Florești District", "source": "OpenStreetMap (osm relation 1693560)"}, "geometry": {"type": "Polygon", "coordinates": [[[28.0232858, 47.9057305], [28.0284684, 47.9021757], [28.0379902, 47.9060565], [28.0460884, 47.9075289], [28.0495408, 47.8986139], [28.0517258, 47.8939033], [28.050926, 47.8828363], [28.0526791, 47.877615], [28.0667478, 47.8730205], [28.0591432, 47.8772557], [28.0622063, 47.8766507], [28.0676996, 47.8729588], [28.0765352, 47.8746225], [28.0786391, 47.8638208], [28.0786201, 47.8630609], [28.0756569, 47.8612759], [28.0733676, 47.8570937], [28.0703977, 47.8510701], [28.07574, 47.8484501], [28.0819992, 47.8453528], [28.1044168, 47.8345668], [28.1087596, 47.8318596], [28.1132279, 47.8300157], [28.1137021, 47.8298352], [28.1158551, 47.8288504], [28.1246907, 47.8243928], [28.1283288, 47.8227588], [28.1302879, 47.8222762], [28.1301476, 47.8233162], [28.1312255, 47.826273], [28.1327139, 47.827482], [28.1350252, 47.8279423], [28.1461696, 47.8357565], [28.1576444, 47.8362694], [28.1611698, 47.8295693], [28.1666185, 47.8196211], [28.1693925, 47.8152022], [28.172743, 47.8088497], [28.1751658, 47.8048584], [28.1755042, 47.8022739], [28.1770001, 47.7924201], [28.1769275, 47.779044], [28.2033062, 47.7796331], [28.2351792, 47.7789591], [28.2653777, 47.7749709], [28.2491496, 47.7647743], [28.23776, 47.7641924], [28.2150321, 47.7487145], [28.2198346, 47.7457773], [28.2326685, 47.7538906], [28.2441525, 47.7459629], [28.2622849, 47.7392663], [28.2651295, 47.7326157], [28.2724752, 47.7321107], [28.2867152, 47.7341216], [28.3060609, 47.7283373], [28.3183453, 47.7238567], [28.3273532, 47.719043], [28.3456626, 47.713926], [28.3601093, 47.7052299], [28.3609051, 47.7033718], [28.3810173, 47.6919931], [28.3962641, 47.7001196], [28.4293997, 47.7027865], [28.4336359, 47.7013423], [28.4375374, 47.699798], [28.4442163, 47.6979216], [28.4706444, 47.7038765], [28.4681436, 47.706192], [28.4803474, 47.7179087], [28.4984105, 47.7322734], [28.5102066, 47.7348946], [28.5184806, 47.7391629], [28.5208178, 47.7475062], [28.5189586, 47.7533927], [28.5135118, 47.765962], [28.5033547, 47.7782536], [28.5000156, 47.7840622], [28.4931329, 47.7971793], [28.4893752, 47.8036292], [28.4855085, 47.8101034], [28.4806344, 47.8208343], [28.4606611, 47.8135161], [28.4498134, 47.8191327], [28.4485203, 47.8176514], [28.444939, 47.8168846], [28.4380918, 47.8162055], [28.4296783, 47.8130275], [28.4287636, 47.815144], [28.426671, 47.8173021], [28.4242075, 47.8188847], [28.4218309, 47.8207583], [28.4185932, 47.8180634], [28.4146165, 47.8185401], [28.4117707, 47.8168612], [28.4114668, 47.8152767], [28.4144617, 47.8125807], [28.4166934, 47.8100193], [28.4170892, 47.8035047], [28.4141013, 47.8009846], [28.4100214, 47.800103], [28.4065341, 47.8017513], [28.4060398, 47.8066404], [28.4048788, 47.8098249], [28.4034509, 47.8139718], [28.406107, 47.8198336], [28.4069145, 47.827653], [28.4116417, 47.8306979], [28.4127492, 47.8327296], [28.4098261, 47.8341576], [28.4114975, 47.8345632], [28.4129993, 47.8357885], [28.4181302, 47.836609], [28.4190528, 47.8367803], [28.4207449, 47.8370602], [28.4264737, 47.8398276], [28.4280522, 47.8416365], [28.4289866, 47.8438085], [28.4310227, 47.8467535], [28.4329787, 47.8472954], [28.436032, 47.8466254], [28.4455174, 47.8496596], [28.4475345, 47.8584795], [28.4487559, 47.8613821], [28.4486256, 47.8641418], [28.4492157, 47.8672719], [28.4527016, 47.866932], [28.4564496, 47.8686458], [28.4576756, 47.8696279], [28.4744266, 47.8738543], [28.4808054, 47.8740997], [28.4871069, 47.8769386], [28.4919916, 47.882196], [28.4954446, 47.8868478], [28.4976592, 47.8904502], [28.4985313, 47.8911706], [28.5017219, 47.8938059], [28.5042935, 47.8945167], [28.5139356, 47.8878029], [28.5242965, 47.8909234], [28.5352565, 47.8944503], [28.5504461, 47.893516], [28.5681523, 47.8919324], [28.5722784, 47.8919784], [28.5749232, 47.8900199], [28.5766192, 47.8877297], [28.5767384, 47.8854617], [28.5776812, 47.8829792], [28.5789916, 47.8826615], [28.5805866, 47.880311], [28.5825972, 47.8779004], [28.5852641, 47.8764395], [28.589196, 47.8769245], [28.5903413, 47.8769687], [28.5912314, 47.8769182], [28.5923672, 47.8764532], [28.5946672, 47.8720854], [28.5954156, 47.8696159], [28.5989317, 47.8679265], [28.6011761, 47.8667249], [28.6040078, 47.8656303], [28.6041695, 47.8621841], [28.6060817, 47.8607192], [28.6061953, 47.861601], [28.6092205, 47.8632017], [28.6107209, 47.8662989], [28.6198539, 47.8712517], [28.6209638, 47.8815596], [28.6340005, 47.8839986], [28.6401035, 47.8858891], [28.6485526, 47.8886255], [28.6740058, 47.8997719], [28.6707584, 47.9128185], [28.6709067, 47.9307224], [28.6775518, 47.9390356], [28.6915511, 47.941169], [28.6985134, 47.9446189], [28.702535, 47.9519469], [28.7059922, 47.9483189], [28.7102683, 47.9532899], [28.7190994, 47.957713], [28.7281664, 47.956559], [28.7362462, 47.956011], [28.7397243, 47.9573935], [28.7440326, 47.9597027], [28.7492609, 47.9618674], [28.7511146, 47.963505], [28.7557612, 47.9653788], [28.7560002, 47.9683803], [28.7573458, 47.9710204], [28.7453483, 47.9759371], [28.7091213, 47.9981517], [28.7012006, 48.0060296], [28.7051305, 48.0157362], [28.6974454, 48.0241262], [28.674923, 48.0269023], [28.6549411, 48.0253111], [28.6269801, 48.0285475], [28.6009525, 48.0351878], [28.5911045, 48.032613], [28.5839664, 48.015368], [28.5754493, 48.0053085], [28.5739029, 48.0009021], [28.5625899, 47.9934057], [28.5488352, 47.9962522], [28.5317277, 48.0028083], [28.53187, 48.0172498], [28.541836, 48.0270604], [28.5443948, 48.0362555], [28.5504628, 48.0392369], [28.5783297, 48.0432751], [28.5870323, 48.0482331], [28.5907955, 48.0601571], [28.5761051, 48.0655787], [28.5737103, 48.0673985], [28.5683201, 48.0651679], [28.5515042, 48.0659049], [28.5411596, 48.0682975], [28.5368603, 48.0645409], [28.532095, 48.0601025], [28.5295908, 48.0577042], [28.5272076, 48.0537032], [28.527091, 48.0500205], [28.5185159, 48.0395858], [28.5127697, 48.037172], [28.5059841, 48.0369343], [28.4992448, 48.03485], [28.4936048, 48.031587], [28.4909543, 48.0305163], [28.4884007, 48.0293024], [28.4838856, 48.0277438], [28.4798346, 48.0249462], [28.4720441, 48.0218452], [28.4675863, 48.0196559], [28.4564969, 48.0157722], [28.4444303, 48.0148729], [28.4346679, 48.012023], [28.4279156, 48.0119411], [28.4331823, 48.004235], [28.4431336, 48.0024218], [28.4418974, 47.9952798], [28.4353968, 47.9879696], [28.428494, 47.9761981], [28.4119343, 47.9868348], [28.397136, 47.9914691], [28.3852299, 47.9904163], [28.3872324, 47.9934351], [28.3763747, 47.9980945], [28.3590274, 47.9950511], [28.3528287, 47.9932162], [28.337665, 47.9862907], [28.3314492, 47.9965092], [28.3132479, 47.9969603], [28.2974893, 47.9996729], [28.2901354, 48.0015306], [28.2878568, 48.0036144], [28.2862745, 48.0052212], [28.2854383, 48.0059554], [28.2847395, 48.0072967], [28.2840291, 48.0084625], [28.2832599, 48.0095429], [28.2829739, 48.0111175], [28.2822499, 48.0127353], [28.2816415, 48.0140762], [28.2751044, 48.0112558], [28.2513718, 47.9986716], [28.2424574, 47.9906104], [28.2364273, 47.9892411], [28.2259343, 47.9852898], [28.2186857, 47.9857773], [28.2143355, 47.9881556], [28.2014371, 47.987257], [28.1735476, 47.9871804], [28.1524361, 47.9873688], [28.134448, 47.9874448], [28.1211126, 47.9883389], [28.1219686, 47.9889573], [28.1224533, 47.9891521], [28.1236263, 47.9904606], [28.1230679, 47.9908833], [28.1219821, 47.9923997], [28.1042739, 47.9924422], [28.0779409, 47.9940469], [28.0638541, 47.9936805], [28.0446757, 47.9931494], [28.0258137, 47.9926844], [28.0251874, 47.9798358], [28.0260872, 47.9711201], [28.0265434, 47.9599059], [28.0321131, 47.9528365], [28.0450435, 47.9400518], [28.0589087, 47.9264553], [28.0319954, 47.9117119], [28.0232858, 47.9057305]]]}}